{
"type": "FeatureCollection",
"name": "hotosm_mng_railways_points_geojson",
"features": [
{ "type": "Feature", "properties": { "name": "Зүүнхараа ᠵᠡᢉᠦᠨ ᠬᠠᠷᠠᠭ᠎ᠠ", "name:en": "Züünkharaa", "railway": "station", "ele": null, "operator:type": null, "layer": null, "addr:full": null, "addr:city": null, "source": null, "name:mn": "Зүүнхараа", "osm_id": 414757097, "osm_type": "nodes" }, "geometry": { "type": "Point", "coordinates": [ 106.4547197, 48.8569635 ] } },
{ "type": "Feature", "properties": { "name": "Цомог", "name:en": "Tsomog", "railway": "station", "ele": null, "operator:type": null, "layer": null, "addr:full": null, "addr:city": null, "source": null, "name:mn": null, "osm_id": 2472141787, "osm_type": "nodes" }, "geometry": { "type": "Point", "coordinates": [ 109.0654384, 45.9179679 ] } },
{ "type": "Feature", "properties": { "name": "Оорцог энгэр", "name:en": "Oortsog-enger", "railway": "station", "ele": null, "operator:type": null, "layer": null, "addr:full": null, "addr:city": null, "source": null, "name:mn": null, "osm_id": 2472141811, "osm_type": "nodes" }, "geometry": { "type": "Point", "coordinates": [ 108.0325214, 46.7131918 ] } },
{ "type": "Feature", "properties": { "name": "Мааньт", "name:en": "Maanyt", "railway": "station", "ele": null, "operator:type": null, "layer": null, "addr:full": null, "addr:city": null, "source": null, "name:mn": null, "osm_id": 2472141822, "osm_type": "nodes" }, "geometry": { "type": "Point", "coordinates": [ 107.5334679, 47.2502893 ] } },
{ "type": "Feature", "properties": { "name": "Хангай", "name:en": "Khangai", "railway": "station", "ele": null, "operator:type": null, "layer": null, "addr:full": null, "addr:city": null, "source": null, "name:mn": null, "osm_id": 2472141832, "osm_type": "nodes" }, "geometry": { "type": "Point", "coordinates": [ 107.3856896, 47.4409475 ] } },
{ "type": "Feature", "properties": { "name": "Чулуут", "name:en": "Chuluut", "railway": "station", "ele": null, "operator:type": null, "layer": null, "addr:full": null, "addr:city": null, "source": null, "name:mn": null, "osm_id": 2472141843, "osm_type": "nodes" }, "geometry": { "type": "Point", "coordinates": [ 107.3625773, 47.5194976 ] } },
{ "type": "Feature", "properties": { "name": "Цагаан хяр", "name:en": "Tsagaan-khyar", "railway": "station", "ele": null, "operator:type": null, "layer": null, "addr:full": null, "addr:city": null, "source": null, "name:mn": null, "osm_id": 277596711, "osm_type": "nodes" }, "geometry": { "type": "Point", "coordinates": [ 107.2898586, 47.5636573 ] } },
{ "type": "Feature", "properties": { "name": "Баян", "name:en": "Bayan", "railway": "station", "ele": null, "operator:type": null, "layer": null, "addr:full": null, "addr:city": null, "source": null, "name:mn": null, "osm_id": 2472141846, "osm_type": "nodes" }, "geometry": { "type": "Point", "coordinates": [ 107.2073309, 47.7024323 ] } },
{ "type": "Feature", "properties": { "name": "Бумбат", "name:en": "Bumbat", "railway": "station", "ele": null, "operator:type": null, "layer": null, "addr:full": null, "addr:city": null, "source": null, "name:mn": null, "osm_id": 2472141857, "osm_type": "nodes" }, "geometry": { "type": "Point", "coordinates": [ 107.1706008, 47.7885657 ] } },
{ "type": "Feature", "properties": { "name": "Шивээ-Овоо 21-р зөрлөг", "name:en": "Shivee-ovoo train station", "railway": "station", "ele": null, "operator:type": null, "layer": null, "addr:full": null, "addr:city": null, "source": null, "name:mn": null, "osm_id": 2472141809, "osm_type": "nodes" }, "geometry": { "type": "Point", "coordinates": [ 108.5322975, 46.2023618 ] } },
{ "type": "Feature", "properties": { "name": "Алтганы гол", "name:en": "Altganygol", "railway": "station", "ele": null, "operator:type": null, "layer": null, "addr:full": null, "addr:city": null, "source": null, "name:mn": null, "osm_id": 2472141781, "osm_type": "nodes" }, "geometry": { "type": "Point", "coordinates": [ 109.5498288, 45.6383929 ] } },
{ "type": "Feature", "properties": { "name": "Улхын-Овоо", "name:en": "Ulkhyn-ovoo", "railway": "station", "ele": null, "operator:type": null, "layer": null, "addr:full": null, "addr:city": null, "source": null, "name:mn": null, "osm_id": 2472141768, "osm_type": "nodes" }, "geometry": { "type": "Point", "coordinates": [ 109.7593306, 45.3290889 ] } },
{ "type": "Feature", "properties": { "name": "Агьсүмбэт", "name:en": "Agisumbet", "railway": "station", "ele": null, "operator:type": null, "layer": null, "addr:full": null, "addr:city": null, "source": null, "name:mn": null, "osm_id": 2472141763, "osm_type": "nodes" }, "geometry": { "type": "Point", "coordinates": [ 109.9646858, 45.150926 ] } },
{ "type": "Feature", "properties": { "name": "Долоодын хөндий", "name:en": "Doloodynkhundii", "railway": "station", "ele": null, "operator:type": null, "layer": null, "addr:full": null, "addr:city": null, "source": null, "name:mn": null, "osm_id": 2472141745, "osm_type": "nodes" }, "geometry": { "type": "Point", "coordinates": [ 110.9754988, 44.5876026 ] } },
{ "type": "Feature", "properties": { "name": "Улаан-Уул", "name:en": "Ulaanuul", "railway": "station", "ele": null, "operator:type": null, "layer": null, "addr:full": null, "addr:city": null, "source": null, "name:mn": null, "osm_id": 2472141743, "osm_type": "nodes" }, "geometry": { "type": "Point", "coordinates": [ 111.0988744, 44.4452645 ] } },
{ "type": "Feature", "properties": { "name": "Номт", "name:en": null, "railway": "station", "ele": null, "operator:type": null, "layer": null, "addr:full": null, "addr:city": null, "source": null, "name:mn": null, "osm_id": 3912267439, "osm_type": "nodes" }, "geometry": { "type": "Point", "coordinates": [ 111.2438571, 44.3463061 ] } },
{ "type": "Feature", "properties": { "name": "特默特", "name:en": null, "railway": "station", "ele": null, "operator:type": null, "layer": null, "addr:full": null, "addr:city": null, "source": null, "name:mn": null, "osm_id": 4072951316, "osm_type": "nodes" }, "geometry": { "type": "Point", "coordinates": [ 107.6509016, 42.3533049 ] } },
{ "type": "Feature", "properties": { "name": "甘其毛都", "name:en": null, "railway": "station", "ele": null, "operator:type": null, "layer": null, "addr:full": null, "addr:city": null, "source": null, "name:mn": null, "osm_id": 4072951317, "osm_type": "nodes" }, "geometry": { "type": "Point", "coordinates": [ 107.6096381, 42.3741417 ] } },
{ "type": "Feature", "properties": { "name": "居延海", "name:en": "Juyanhai", "railway": "station", "ele": null, "operator:type": null, "layer": null, "addr:full": null, "addr:city": null, "source": null, "name:mn": null, "osm_id": 7473325534, "osm_type": "nodes" }, "geometry": { "type": "Point", "coordinates": [ 101.3959229, 42.2827224 ] } },
{ "type": "Feature", "properties": { "name": "策克", "name:en": "Ceke", "railway": "station", "ele": null, "operator:type": null, "layer": null, "addr:full": null, "addr:city": null, "source": null, "name:mn": null, "osm_id": 7473325533, "osm_type": "nodes" }, "geometry": { "type": "Point", "coordinates": [ 101.3413399, 42.5419948 ] } },
{ "type": "Feature", "properties": { "name": "天鹅湖", "name:en": "Tianehu", "railway": "station", "ele": null, "operator:type": null, "layer": null, "addr:full": null, "addr:city": null, "source": null, "name:mn": null, "osm_id": 7473373512, "osm_type": "nodes" }, "geometry": { "type": "Point", "coordinates": [ 101.6379118, 42.0120285 ] } },
{ "type": "Feature", "properties": { "name": "Орхон", "name:en": null, "railway": "station", "ele": null, "operator:type": null, "layer": null, "addr:full": null, "addr:city": null, "source": null, "name:mn": null, "osm_id": 8301672403, "osm_type": "nodes" }, "geometry": { "type": "Point", "coordinates": [ 106.1358739, 49.8349945 ] } },
{ "type": "Feature", "properties": { "name": null, "name:en": null, "railway": "station", "ele": null, "operator:type": null, "layer": null, "addr:full": null, "addr:city": null, "source": null, "name:mn": null, "osm_id": 11788058041, "osm_type": "nodes" }, "geometry": { "type": "Point", "coordinates": [ 105.5823603, 43.6433562 ] } },
{ "type": "Feature", "properties": { "name": "库木苏", "name:en": null, "railway": "station", "ele": null, "operator:type": null, "layer": null, "addr:full": null, "addr:city": null, "source": null, "name:mn": null, "osm_id": 11524780871, "osm_type": "nodes" }, "geometry": { "type": "Point", "coordinates": [ 92.1446524, 44.8015699 ] } },
{ "type": "Feature", "properties": { "name": "乌舍尔", "name:en": null, "railway": "station", "ele": null, "operator:type": null, "layer": null, "addr:full": null, "addr:city": null, "source": null, "name:mn": null, "osm_id": 7369154310, "osm_type": "nodes" }, "geometry": { "type": "Point", "coordinates": [ 95.7329106, 43.0180858 ] } },
{ "type": "Feature", "properties": { "name": "Улаантолгой зөрлөг", "name:en": "Ulaantolgoi", "railway": "station", "ele": null, "operator:type": null, "layer": null, "addr:full": null, "addr:city": null, "source": null, "name:mn": null, "osm_id": 2472141936, "osm_type": "nodes" }, "geometry": { "type": "Point", "coordinates": [ 104.4037761, 49.0335714 ] } },
{ "type": "Feature", "properties": { "name": "尤尔敦", "name:en": null, "railway": "station", "ele": null, "operator:type": null, "layer": null, "addr:full": null, "addr:city": null, "source": null, "name:mn": null, "osm_id": 7369154305, "osm_type": "nodes" }, "geometry": { "type": "Point", "coordinates": [ 95.2157807, 43.4454025 ] } },
{ "type": "Feature", "properties": { "name": "尤尔敦东", "name:en": null, "railway": "station", "ele": null, "operator:type": null, "layer": null, "addr:full": null, "addr:city": null, "source": null, "name:mn": null, "osm_id": 7369154306, "osm_type": "nodes" }, "geometry": { "type": "Point", "coordinates": [ 95.3191531, 43.3436569 ] } },
{ "type": "Feature", "properties": { "name": "苏泊淖尔", "name:en": null, "railway": "station", "ele": null, "operator:type": null, "layer": null, "addr:full": null, "addr:city": null, "source": null, "name:mn": null, "osm_id": 8187829510, "osm_type": "nodes" }, "geometry": { "type": "Point", "coordinates": [ 101.1337938, 42.3090449 ] } },
{ "type": "Feature", "properties": { "name": "Хангал зөрлөгийн байр", "name:en": "Khangal", "railway": "station", "ele": null, "operator:type": null, "layer": null, "addr:full": null, "addr:city": null, "source": null, "name:mn": null, "osm_id": 2472141926, "osm_type": "nodes" }, "geometry": { "type": "Point", "coordinates": [ 104.5787569, 48.8698253 ] } },
{ "type": "Feature", "properties": { "name": "Цайдам", "name:en": "Tsaidam", "railway": "station", "ele": null, "operator:type": null, "layer": null, "addr:full": null, "addr:city": null, "source": null, "name:mn": null, "osm_id": 2472141973, "osm_type": "nodes" }, "geometry": { "type": "Point", "coordinates": [ 105.9158761, 49.2987597 ] } },
{ "type": "Feature", "properties": { "name": "Номгон зөрлөг", "name:en": "Nomgon", "railway": "station", "ele": null, "operator:type": null, "layer": null, "addr:full": null, "addr:city": null, "source": null, "name:mn": null, "osm_id": 2472141941, "osm_type": "nodes" }, "geometry": { "type": "Point", "coordinates": [ 105.9240482, 49.0366551 ] } },
{ "type": "Feature", "properties": { "name": "Давааны", "name:en": null, "railway": "station", "ele": null, "operator:type": null, "layer": null, "addr:full": null, "addr:city": null, "source": null, "name:mn": null, "osm_id": 414757540, "osm_type": "nodes" }, "geometry": { "type": "Point", "coordinates": [ 106.5357049, 47.9350536 ] } },
{ "type": "Feature", "properties": { "name": "Бэрх", "name:en": "Berkh", "railway": "station", "ele": null, "operator:type": null, "layer": null, "addr:full": null, "addr:city": null, "source": null, "name:mn": null, "osm_id": 414757069, "osm_type": "nodes" }, "geometry": { "type": "Point", "coordinates": [ 106.3357307, 48.8542977 ] } },
{ "type": "Feature", "properties": { "name": null, "name:en": null, "railway": "station", "ele": null, "operator:type": null, "layer": null, "addr:full": null, "addr:city": null, "source": null, "name:mn": null, "osm_id": 2198903952, "osm_type": "nodes" }, "geometry": { "type": "Point", "coordinates": [ 106.2495104, 49.9093891 ] } },
{ "type": "Feature", "properties": { "name": "34-р цэг", "name:en": "34 station", "railway": "station", "ele": null, "operator:type": null, "layer": null, "addr:full": null, "addr:city": null, "source": null, "name:mn": null, "osm_id": 2472142026, "osm_type": "nodes" }, "geometry": { "type": "Point", "coordinates": [ 106.1937986, 50.1379316 ] } },
{ "type": "Feature", "properties": { "name": "Баруунхараа", "name:en": null, "railway": "station", "ele": null, "operator:type": null, "layer": null, "addr:full": null, "addr:city": null, "source": null, "name:mn": null, "osm_id": 2472141931, "osm_type": "nodes" }, "geometry": { "type": "Point", "coordinates": [ 106.091651, 48.9027795 ] } },
{ "type": "Feature", "properties": { "name": null, "name:en": null, "railway": "station", "ele": null, "operator:type": null, "layer": null, "addr:full": null, "addr:city": null, "source": null, "name:mn": null, "osm_id": 2198903845, "osm_type": "nodes" }, "geometry": { "type": "Point", "coordinates": [ 106.6295472, 49.7912122 ] } },
{ "type": "Feature", "properties": { "name": null, "name:en": null, "railway": "station", "ele": null, "operator:type": null, "layer": null, "addr:full": null, "addr:city": null, "source": null, "name:mn": null, "osm_id": 2198903923, "osm_type": "nodes" }, "geometry": { "type": "Point", "coordinates": [ 106.9167152, 49.7840845 ] } },
{ "type": "Feature", "properties": { "name": "Рашаант", "name:en": "Rashaant", "railway": "station", "ele": null, "operator:type": null, "layer": null, "addr:full": null, "addr:city": null, "source": null, "name:mn": null, "osm_id": 2472141891, "osm_type": "nodes" }, "geometry": { "type": "Point", "coordinates": [ 106.5677084, 48.0618567 ] } },
{ "type": "Feature", "properties": { "name": "264-н цэг", "name:en": "264 station", "railway": "station", "ele": null, "operator:type": null, "layer": null, "addr:full": null, "addr:city": null, "source": null, "name:mn": null, "osm_id": 3523636727, "osm_type": "nodes" }, "geometry": { "type": "Point", "coordinates": [ 106.7318232, 48.7040757 ] } },
{ "type": "Feature", "properties": { "name": "Орхон", "name:en": "Orkhon", "railway": "station", "ele": null, "operator:type": null, "layer": null, "addr:full": null, "addr:city": null, "source": null, "name:mn": null, "osm_id": 2472142006, "osm_type": "nodes" }, "geometry": { "type": "Point", "coordinates": [ 106.1351593, 49.8350145 ] } },
{ "type": "Feature", "properties": { "name": "Дулаан", "name:en": "Dulaan", "railway": "station", "ele": null, "operator:type": null, "layer": null, "addr:full": null, "addr:city": null, "source": null, "name:mn": null, "osm_id": 2314495849, "osm_type": "nodes" }, "geometry": { "type": "Point", "coordinates": [ 106.1324336, 50.0188328 ] } },
{ "type": "Feature", "properties": { "name": "Эрхэт", "name:en": "Erkhet", "railway": "station", "ele": null, "operator:type": null, "layer": null, "addr:full": null, "addr:city": null, "source": null, "name:mn": null, "osm_id": 2472141958, "osm_type": "nodes" }, "geometry": { "type": "Point", "coordinates": [ 105.8906614, 49.1175061 ] } },
{ "type": "Feature", "properties": { "name": "Энхтал", "name:en": "Enkhtal", "railway": "station", "ele": null, "operator:type": null, "layer": null, "addr:full": null, "addr:city": null, "source": null, "name:mn": null, "osm_id": 2472142003, "osm_type": "nodes" }, "geometry": { "type": "Point", "coordinates": [ 105.9300869, 49.6870671 ] } },
{ "type": "Feature", "properties": { "name": "白石湖南", "name:en": null, "railway": "station", "ele": null, "operator:type": null, "layer": null, "addr:full": null, "addr:city": null, "source": null, "name:mn": null, "osm_id": 7369194520, "osm_type": "nodes" }, "geometry": { "type": "Point", "coordinates": [ 94.7279834, 43.7747273 ] } },
{ "type": "Feature", "properties": { "name": "广汇", "name:en": null, "railway": "station", "ele": null, "operator:type": null, "layer": null, "addr:full": null, "addr:city": null, "source": null, "name:mn": null, "osm_id": 7369194522, "osm_type": "nodes" }, "geometry": { "type": "Point", "coordinates": [ 95.0021428, 43.7168995 ] } },
{ "type": "Feature", "properties": { "name": "淖毛湖西", "name:en": null, "railway": "station", "ele": null, "operator:type": null, "layer": null, "addr:full": null, "addr:city": null, "source": null, "name:mn": null, "osm_id": 7369194521, "osm_type": "nodes" }, "geometry": { "type": "Point", "coordinates": [ 94.8946559, 43.7084466 ] } },
{ "type": "Feature", "properties": { "name": "哈贝日格", "name:en": null, "railway": "station", "ele": null, "operator:type": null, "layer": null, "addr:full": null, "addr:city": null, "source": null, "name:mn": null, "osm_id": 4072951333, "osm_type": "nodes" }, "geometry": { "type": "Point", "coordinates": [ 107.86412, 42.3575375 ] } },
{ "type": "Feature", "properties": { "name": "Замын-Үүд 2", "name:en": "Zamynuud-2", "railway": "station", "ele": null, "operator:type": null, "layer": null, "addr:full": null, "addr:city": null, "source": null, "name:mn": null, "osm_id": 2472141711, "osm_type": "nodes" }, "geometry": { "type": "Point", "coordinates": [ 111.8850026, 43.7357991 ] } },
{ "type": "Feature", "properties": { "name": "Туул", "name:en": "Tuul", "railway": "station", "ele": null, "operator:type": null, "layer": null, "addr:full": null, "addr:city": null, "source": null, "name:mn": null, "osm_id": 2472141879, "osm_type": "nodes" }, "geometry": { "type": "Point", "coordinates": [ 107.0910524, 47.8749389 ] } },
{ "type": "Feature", "properties": { "name": "Бэлэндалай зөрлөг", "name:en": "Belendalai", "railway": "station", "ele": null, "operator:type": null, "layer": null, "addr:full": null, "addr:city": null, "source": null, "name:mn": null, "osm_id": 2309313306, "osm_type": "nodes" }, "geometry": { "type": "Point", "coordinates": [ 105.4085281, 49.0447674 ] } },
{ "type": "Feature", "properties": { "name": "Салхит", "name:en": "Salkhit", "railway": "station", "ele": null, "operator:type": null, "layer": null, "addr:full": null, "addr:city": null, "source": null, "name:mn": null, "osm_id": 2309313575, "osm_type": "nodes" }, "geometry": { "type": "Point", "coordinates": [ 105.8681619, 49.1977626 ] } },
{ "type": "Feature", "properties": { "name": "Хойт зөрлөг", "name:en": "Khoit", "railway": "station", "ele": null, "operator:type": null, "layer": null, "addr:full": null, "addr:city": null, "source": null, "name:mn": null, "osm_id": 300430416, "osm_type": "nodes" }, "geometry": { "type": "Point", "coordinates": [ 106.1353899, 50.3070654 ] } },
{ "type": "Feature", "properties": { "name": "Багахангай", "name:en": "Bagakhangai", "railway": "station", "ele": null, "operator:type": null, "layer": null, "addr:full": null, "addr:city": null, "source": null, "name:mn": null, "osm_id": 10000596505, "osm_type": "nodes" }, "geometry": { "type": "Point", "coordinates": [ 107.4842128, 47.353309 ] } },
{ "type": "Feature", "properties": { "name": "Баянтүмэн", "name:en": null, "railway": "station", "ele": null, "operator:type": null, "layer": null, "addr:full": null, "addr:city": null, "source": null, "name:mn": null, "osm_id": 10038137977, "osm_type": "nodes" }, "geometry": { "type": "Point", "coordinates": [ 114.5655423, 48.1136456 ] } },
{ "type": "Feature", "properties": { "name": "Олон овоо", "name:en": "Olon-ovoo", "railway": "station", "ele": null, "operator:type": null, "layer": null, "addr:full": null, "addr:city": null, "source": null, "name:mn": null, "osm_id": 2472141788, "osm_type": "nodes" }, "geometry": { "type": "Point", "coordinates": [ 108.9496745, 45.953145 ] } },
{ "type": "Feature", "properties": { "name": "Айраг", "name:en": "Airag", "railway": "station", "ele": null, "operator:type": null, "layer": null, "addr:full": null, "addr:city": null, "source": null, "name:mn": null, "osm_id": 2472141786, "osm_type": "nodes" }, "geometry": { "type": "Point", "coordinates": [ 109.3067263, 45.8000808 ] } },
{ "type": "Feature", "properties": { "name": "Хөтөл өртөө", "name:en": "Khutul", "railway": "station", "ele": null, "operator:type": null, "layer": null, "addr:full": null, "addr:city": null, "source": null, "name:mn": null, "osm_id": 2472141950, "osm_type": "nodes" }, "geometry": { "type": "Point", "coordinates": [ 105.5788553, 49.0980586 ] } },
{ "type": "Feature", "properties": { "name": "Наран-Элгэн", "name:en": "Naran-elgen", "railway": "station", "ele": null, "operator:type": null, "layer": null, "addr:full": null, "addr:city": null, "source": null, "name:mn": null, "osm_id": 12957237572, "osm_type": "nodes" }, "geometry": { "type": "Point", "coordinates": [ 107.78729, 46.8312805 ] } },
{ "type": "Feature", "properties": { "name": "Өргөн", "name:en": "Urgun", "railway": "station", "ele": null, "operator:type": null, "layer": null, "addr:full": null, "addr:city": null, "source": null, "name:mn": null, "osm_id": 2456809539, "osm_type": "nodes" }, "geometry": { "type": "Point", "coordinates": [ 110.7725307, 44.7237255 ] } },
{ "type": "Feature", "properties": { "name": "Шаргын-Овоо", "name:en": "Shargyn-ovoo", "railway": "station", "ele": null, "operator:type": null, "layer": null, "addr:full": null, "addr:city": null, "source": null, "name:mn": null, "osm_id": 2472141712, "osm_type": "nodes" }, "geometry": { "type": "Point", "coordinates": [ 111.7425978, 43.8415362 ] } },
{ "type": "Feature", "properties": { "name": "Авгын гол", "name:en": "Avgyingol", "railway": "station", "ele": null, "operator:type": null, "layer": null, "addr:full": null, "addr:city": null, "source": null, "name:mn": null, "osm_id": 2472141726, "osm_type": "nodes" }, "geometry": { "type": "Point", "coordinates": [ 111.3953794, 44.1050708 ] } },
{ "type": "Feature", "properties": { "name": "Сумангийнзоо", "name:en": "Sumangiinzoo", "railway": "station", "ele": null, "operator:type": null, "layer": null, "addr:full": null, "addr:city": null, "source": null, "name:mn": null, "osm_id": 2472141731, "osm_type": "nodes" }, "geometry": { "type": "Point", "coordinates": [ 111.2742451, 44.1801392 ] } },
{ "type": "Feature", "properties": { "name": "Цагаанхад", "name:en": "Tsagaankhyar", "railway": "station", "ele": null, "operator:type": null, "layer": null, "addr:full": null, "addr:city": null, "source": null, "name:mn": null, "osm_id": 2472141734, "osm_type": "nodes" }, "geometry": { "type": "Point", "coordinates": [ 111.17461, 44.2532496 ] } },
{ "type": "Feature", "properties": { "name": "Бор-Өндөр ᠪᠣᠷᠤ ᠥᠨᠳᠦᠷ", "name:en": null, "railway": "station", "ele": null, "operator:type": null, "layer": null, "addr:full": null, "addr:city": null, "source": null, "name:mn": "Бор-Өндөр", "osm_id": 2167067829, "osm_type": "nodes" }, "geometry": { "type": "Point", "coordinates": [ 109.4317612, 46.2497978 ] } },
{ "type": "Feature", "properties": { "name": "满都拉", "name:en": null, "railway": "station", "ele": null, "operator:type": null, "layer": null, "addr:full": null, "addr:city": null, "source": null, "name:mn": null, "osm_id": 9072960167, "osm_type": "nodes" }, "geometry": { "type": "Point", "coordinates": [ 109.9543728, 42.5433592 ] } },
{ "type": "Feature", "properties": { "name": "Хавирга", "name:en": null, "railway": "station", "ele": null, "operator:type": null, "layer": null, "addr:full": null, "addr:city": null, "source": null, "name:mn": null, "osm_id": 2472827374, "osm_type": "nodes" }, "geometry": { "type": "Point", "coordinates": [ 115.2032446, 48.8192748 ] } },
{ "type": "Feature", "properties": { "name": "白石湖东", "name:en": null, "railway": "station", "ele": null, "operator:type": null, "layer": null, "addr:full": null, "addr:city": null, "source": null, "name:mn": null, "osm_id": 7369194519, "osm_type": "nodes" }, "geometry": { "type": "Point", "coordinates": [ 94.7305155, 43.8676877 ] } },
{ "type": "Feature", "properties": { "name": "东三矿", "name:en": null, "railway": "station", "ele": null, "operator:type": null, "layer": null, "addr:full": null, "addr:city": null, "source": null, "name:mn": null, "osm_id": 7369194524, "osm_type": "nodes" }, "geometry": { "type": "Point", "coordinates": [ 95.1576948, 43.7578211 ] } },
{ "type": "Feature", "properties": { "name": "东四矿", "name:en": null, "railway": "station", "ele": null, "operator:type": null, "layer": null, "addr:full": null, "addr:city": null, "source": null, "name:mn": null, "osm_id": 7369194525, "osm_type": "nodes" }, "geometry": { "type": "Point", "coordinates": [ 95.3714776, 43.7470721 ] } },
{ "type": "Feature", "properties": { "name": "淖毛湖", "name:en": null, "railway": "station", "ele": null, "operator:type": null, "layer": null, "addr:full": null, "addr:city": null, "source": null, "name:mn": null, "osm_id": 7369154303, "osm_type": "nodes" }, "geometry": { "type": "Point", "coordinates": [ 95.055964, 43.6322159 ] } },
{ "type": "Feature", "properties": { "name": "苏鲁克", "name:en": null, "railway": "station", "ele": null, "operator:type": null, "layer": null, "addr:full": null, "addr:city": null, "source": null, "name:mn": null, "osm_id": 7369154304, "osm_type": "nodes" }, "geometry": { "type": "Point", "coordinates": [ 95.1389086, 43.5471562 ] } },
{ "type": "Feature", "properties": { "name": "Толгойт ᠲᠣᠯᠤᠭᠠᠢ ᠲᠠ", "name:en": "Tolgoit", "railway": "station", "ele": null, "operator:type": null, "layer": null, "addr:full": null, "addr:city": null, "source": null, "name:mn": "Толгойт", "osm_id": 1317293828, "osm_type": "nodes" }, "geometry": { "type": "Point", "coordinates": [ 106.7785743, 47.908567 ] } },
{ "type": "Feature", "properties": { "name": "Үнэгт", "name:en": "Unegt", "railway": "station", "ele": null, "operator:type": null, "layer": null, "addr:full": null, "addr:city": null, "source": null, "name:mn": null, "osm_id": 2472141914, "osm_type": "nodes" }, "geometry": { "type": "Point", "coordinates": [ 106.7128363, 48.7974513 ] } },
{ "type": "Feature", "properties": { "name": "Шатанга", "name:en": "Shatanga", "railway": "station", "ele": null, "operator:type": null, "layer": null, "addr:full": null, "addr:city": null, "source": null, "name:mn": null, "osm_id": 1960876291, "osm_type": "nodes" }, "geometry": { "type": "Point", "coordinates": [ 106.8077999, 48.5212484 ] } },
{ "type": "Feature", "properties": { "name": "Ногоонтолгой", "name:en": "Nogoontolgoi", "railway": "station", "ele": null, "operator:type": null, "layer": null, "addr:full": null, "addr:city": null, "source": null, "name:mn": null, "osm_id": 2472141898, "osm_type": "nodes" }, "geometry": { "type": "Point", "coordinates": [ 106.7118556, 48.1965473 ] } },
{ "type": "Feature", "properties": { "name": "布拉克", "name:en": null, "railway": "station", "ele": null, "operator:type": null, "layer": null, "addr:full": null, "addr:city": null, "source": null, "name:mn": null, "osm_id": 11524990503, "osm_type": "nodes" }, "geometry": { "type": "Point", "coordinates": [ 94.389843, 43.808174 ] } },
{ "type": "Feature", "properties": { "name": "三塘湖", "name:en": null, "railway": "station", "ele": null, "operator:type": null, "layer": null, "addr:full": null, "addr:city": null, "source": null, "name:mn": null, "osm_id": 11524899214, "osm_type": "nodes" }, "geometry": { "type": "Point", "coordinates": [ 93.4627155, 44.2461969 ] } },
{ "type": "Feature", "properties": { "name": "汉水泉", "name:en": null, "railway": "station", "ele": null, "operator:type": null, "layer": null, "addr:full": null, "addr:city": null, "source": null, "name:mn": null, "osm_id": 11524835219, "osm_type": "nodes" }, "geometry": { "type": "Point", "coordinates": [ 92.5900332, 44.59859 ] } },
{ "type": "Feature", "properties": { "name": "条湖", "name:en": null, "railway": "station", "ele": null, "operator:type": null, "layer": null, "addr:full": null, "addr:city": null, "source": null, "name:mn": null, "osm_id": 11524899320, "osm_type": "nodes" }, "geometry": { "type": "Point", "coordinates": [ 93.2373422, 44.3222699 ] } },
{ "type": "Feature", "properties": { "name": "岔哈泉", "name:en": null, "railway": "station", "ele": null, "operator:type": null, "layer": null, "addr:full": null, "addr:city": null, "source": null, "name:mn": null, "osm_id": 11524917652, "osm_type": "nodes" }, "geometry": { "type": "Point", "coordinates": [ 93.7894441, 44.1185479 ] } },
{ "type": "Feature", "properties": { "name": "Агуйт", "name:en": "Agiut", "railway": "station", "ele": null, "operator:type": null, "layer": null, "addr:full": null, "addr:city": null, "source": null, "name:mn": null, "osm_id": 2472141813, "osm_type": "nodes" }, "geometry": { "type": "Point", "coordinates": [ 107.6433221, 47.044508 ] } },
{ "type": "Feature", "properties": { "name": null, "name:en": "Bulagtai", "railway": "station", "ele": null, "operator:type": null, "layer": null, "addr:full": null, "addr:city": null, "source": null, "name:mn": null, "osm_id": 2472141827, "osm_type": "nodes" }, "geometry": { "type": "Point", "coordinates": [ 107.8892983, 47.4252774 ] } },
{ "type": "Feature", "properties": { "name": "巴音杭盖", "name:en": null, "railway": "station", "ele": null, "operator:type": null, "layer": null, "addr:full": null, "addr:city": null, "source": null, "name:mn": null, "osm_id": 4072951339, "osm_type": "nodes" }, "geometry": { "type": "Point", "coordinates": [ 108.0188322, 42.194833 ] } },
{ "type": "Feature", "properties": { "name": "Хайрхан", "name:en": "Khairkhan", "railway": "station", "ele": null, "operator:type": null, "layer": null, "addr:full": null, "addr:city": null, "source": null, "name:mn": null, "osm_id": 277596515, "osm_type": "nodes" }, "geometry": { "type": "Point", "coordinates": [ 107.1897197, 47.6507936 ] } },
{ "type": "Feature", "properties": { "name": "Хоолт", "name:en": "Khoolt", "railway": "station", "ele": null, "operator:type": null, "layer": null, "addr:full": null, "addr:city": null, "source": null, "name:mn": null, "osm_id": 277596614, "osm_type": "nodes" }, "geometry": { "type": "Point", "coordinates": [ 107.2217016, 47.6113299 ] } },
{ "type": "Feature", "properties": { "name": "南台子", "name:en": null, "railway": "station", "ele": null, "operator:type": null, "layer": null, "addr:full": null, "addr:city": null, "source": null, "name:mn": null, "osm_id": 11524934727, "osm_type": "nodes" }, "geometry": { "type": "Point", "coordinates": [ 94.0819778, 43.9411148 ] } },
{ "type": "Feature", "properties": { "name": "Зүүнбаян өртөө", "name:en": "Zuunbayan", "railway": "station", "ele": null, "operator:type": null, "layer": null, "addr:full": null, "addr:city": null, "source": null, "name:mn": null, "osm_id": 2472141744, "osm_type": "nodes" }, "geometry": { "type": "Point", "coordinates": [ 110.0628348, 44.5188731 ] } },
{ "type": "Feature", "properties": { "name": "Шивээговь 22-р зөрлөг", "name:en": "Shiveegobi train station", "railway": "station", "ele": null, "operator:type": null, "layer": null, "addr:full": null, "addr:city": null, "source": null, "name:mn": null, "osm_id": 2472141802, "osm_type": "nodes" }, "geometry": { "type": "Point", "coordinates": [ 108.660072, 46.1368318 ] } },
{ "type": "Feature", "properties": { "name": "Өлзийт", "name:en": "Ulziit", "railway": "station", "ele": null, "operator:type": null, "layer": null, "addr:full": null, "addr:city": null, "source": null, "name:mn": null, "osm_id": 2472141793, "osm_type": "nodes" }, "geometry": { "type": "Point", "coordinates": [ 108.8005531, 46.0132982 ] } },
{ "type": "Feature", "properties": { "name": "望洋台", "name:en": null, "railway": "station", "ele": null, "operator:type": null, "layer": null, "addr:full": null, "addr:city": null, "source": null, "name:mn": null, "osm_id": 11524835286, "osm_type": "nodes" }, "geometry": { "type": "Point", "coordinates": [ 93.0271542, 44.4286974 ] } },
{ "type": "Feature", "properties": { "name": "Хөх нуур", "name:en": null, "railway": "station", "ele": null, "operator:type": null, "layer": null, "addr:full": null, "addr:city": null, "source": null, "name:mn": null, "osm_id": 13195807113, "osm_type": "nodes" }, "geometry": { "type": "Point", "coordinates": [ 115.5536468, 49.6044786 ] } },
{ "type": "Feature", "properties": { "name": "103 км", "name:en": null, "railway": "station", "ele": null, "operator:type": null, "layer": null, "addr:full": null, "addr:city": null, "source": null, "name:mn": null, "osm_id": 13196099669, "osm_type": "nodes" }, "geometry": { "type": "Point", "coordinates": [ 115.3811228, 49.0646484 ] } },
{ "type": "Feature", "properties": { "name": "Энгер", "name:en": null, "railway": "station", "ele": null, "operator:type": null, "layer": null, "addr:full": null, "addr:city": null, "source": null, "name:mn": "160 км", "osm_id": 13196119053, "osm_type": "nodes" }, "geometry": { "type": "Point", "coordinates": [ 115.0039525, 48.6830368 ] } },
{ "type": "Feature", "properties": { "name": "Хэрлэн", "name:en": null, "railway": "station", "ele": null, "operator:type": null, "layer": null, "addr:full": null, "addr:city": null, "source": null, "name:mn": null, "osm_id": 13196162956, "osm_type": "nodes" }, "geometry": { "type": "Point", "coordinates": [ 114.8963237, 48.4361039 ] } },
{ "type": "Feature", "properties": { "name": "Чингисийн далан", "name:en": null, "railway": "station", "ele": null, "operator:type": null, "layer": null, "addr:full": null, "addr:city": null, "source": null, "name:mn": null, "osm_id": 13195950016, "osm_type": "nodes" }, "geometry": { "type": "Point", "coordinates": [ 115.4691976, 49.2974738 ] } },
{ "type": "Feature", "properties": { "name": "Шивээ Хүрэн", "name:en": "Shivee Khüren", "railway": "station", "ele": null, "operator:type": null, "layer": null, "addr:full": null, "addr:city": null, "source": null, "name:mn": null, "osm_id": 13324149045, "osm_type": "nodes" }, "geometry": { "type": "Point", "coordinates": [ 101.3015789, 42.6145898 ] } },
{ "type": "Feature", "properties": { "name": "策克", "name:en": null, "railway": "station", "ele": null, "operator:type": null, "layer": null, "addr:full": null, "addr:city": null, "source": null, "name:mn": null, "osm_id": 9081732729, "osm_type": "nodes" }, "geometry": { "type": "Point", "coordinates": [ 101.2950415, 42.5732266 ] } },
{ "type": "Feature", "properties": { "name": "Эмээлт", "name:en": "Emeelt", "railway": "station", "ele": null, "operator:type": null, "layer": null, "addr:full": null, "addr:city": null, "source": null, "name:mn": null, "osm_id": 2472141880, "osm_type": "nodes" }, "geometry": { "type": "Point", "coordinates": [ 106.5996437, 47.8869565 ] } },
{ "type": "Feature", "properties": { "name": "Хонхор", "name:en": "Khonkhor", "railway": "station", "ele": null, "operator:type": null, "layer": null, "addr:full": null, "addr:city": null, "source": null, "name:mn": null, "osm_id": 2472141874, "osm_type": "nodes" }, "geometry": { "type": "Point", "coordinates": [ 107.164283, 47.8141211 ] } },
{ "type": "Feature", "properties": { "name": "Ерөө", "name:en": "Yuroo", "railway": "station", "ele": null, "operator:type": null, "layer": null, "addr:full": null, "addr:city": null, "source": null, "name:mn": null, "osm_id": 11303236359, "osm_type": "nodes" }, "geometry": { "type": "Point", "coordinates": [ 106.1551456, 49.9234428 ] } },
{ "type": "Feature", "properties": { "name": "珠恩嘎达布其", "name:en": null, "railway": "station", "ele": null, "operator:type": null, "layer": null, "addr:full": null, "addr:city": null, "source": null, "name:mn": null, "osm_id": 4131515019, "osm_type": "nodes" }, "geometry": { "type": "Point", "coordinates": [ 116.3103944, 45.7602555 ] } },
{ "type": "Feature", "properties": { "name": "Орхонтуул зөрлөг", "name:en": "Orkhontuul", "railway": "station", "ele": null, "operator:type": null, "layer": null, "addr:full": null, "addr:city": null, "source": null, "name:mn": null, "osm_id": 2472141935, "osm_type": "nodes" }, "geometry": { "type": "Point", "coordinates": [ 104.9821538, 48.944743 ] } },
{ "type": "Feature", "properties": { "name": "Лүн", "name:en": "Lun", "railway": "station", "ele": null, "operator:type": null, "layer": null, "addr:full": null, "addr:city": null, "source": null, "name:mn": null, "osm_id": 2472141810, "osm_type": "nodes" }, "geometry": { "type": "Point", "coordinates": [ 108.2647819, 46.5864555 ] } },
{ "type": "Feature", "properties": { "name": "下马崖北 شىمالىي باي", "name:en": null, "railway": "station", "ele": null, "operator:type": null, "layer": null, "addr:full": null, "addr:city": null, "source": null, "name:mn": null, "osm_id": 7369154307, "osm_type": "nodes" }, "geometry": { "type": "Point", "coordinates": [ 95.3268591, 43.2349278 ] } },
{ "type": "Feature", "properties": { "name": "下马崖 باي", "name:en": null, "railway": "station", "ele": null, "operator:type": null, "layer": null, "addr:full": null, "addr:city": null, "source": null, "name:mn": null, "osm_id": 7369154308, "osm_type": "nodes" }, "geometry": { "type": "Point", "coordinates": [ 95.4538106, 43.1481176 ] } },
{ "type": "Feature", "properties": { "name": "淖毛湖东 شەرقىي نوم", "name:en": null, "railway": "station", "ele": null, "operator:type": null, "layer": null, "addr:full": null, "addr:city": null, "source": null, "name:mn": null, "osm_id": 7369194523, "osm_type": "nodes" }, "geometry": { "type": "Point", "coordinates": [ 95.0772071, 43.7023195 ] } },
{ "type": "Feature", "properties": { "name": "Баянтал", "name:en": null, "railway": "station", "ele": null, "operator:type": null, "layer": null, "addr:full": null, "addr:city": null, "source": null, "name:mn": null, "osm_id": 12420205655, "osm_type": "nodes" }, "geometry": { "type": "Point", "coordinates": [ 108.2775697, 46.5681193 ] } },
{ "type": "Feature", "properties": { "name": null, "name:en": null, "railway": "station", "ele": null, "operator:type": null, "layer": null, "addr:full": null, "addr:city": null, "source": null, "name:mn": null, "osm_id": 10017987691, "osm_type": "nodes" }, "geometry": { "type": "Point", "coordinates": [ 106.053544, 43.2535507 ] } },
{ "type": "Feature", "properties": { "name": null, "name:en": null, "railway": "station", "ele": null, "operator:type": null, "layer": null, "addr:full": null, "addr:city": null, "source": null, "name:mn": null, "osm_id": 7616270742, "osm_type": "nodes" }, "geometry": { "type": "Point", "coordinates": [ 105.7504249, 43.5308936 ] } },
{ "type": "Feature", "properties": { "name": "Шаамар", "name:en": null, "railway": "station", "ele": null, "operator:type": null, "layer": null, "addr:full": null, "addr:city": null, "source": null, "name:mn": null, "osm_id": 11682050289, "osm_type": "nodes" }, "geometry": { "type": "Point", "coordinates": [ 106.1843432, 50.1137009 ] } },
{ "type": "Feature", "properties": { "name": "克音沟", "name:en": null, "railway": "station", "ele": null, "operator:type": null, "layer": null, "addr:full": null, "addr:city": null, "source": null, "name:mn": null, "osm_id": 7369154309, "osm_type": "nodes" }, "geometry": { "type": "Point", "coordinates": [ 95.5908233, 43.0919853 ] } },
{ "type": "Feature", "properties": { "name": "Дархан 2", "name:en": "Darkhan-2", "railway": "station", "ele": null, "operator:type": null, "layer": null, "addr:full": null, "addr:city": null, "source": null, "name:mn": null, "osm_id": 2472141981, "osm_type": "nodes" }, "geometry": { "type": "Point", "coordinates": [ 105.9396319, 49.4304097 ] } },
{ "type": "Feature", "properties": { "name": "Шарын гол өртөө", "name:en": "Sharyngol", "railway": "station", "ele": null, "operator:type": null, "layer": null, "addr:full": null, "addr:city": null, "source": null, "name:mn": null, "osm_id": 2074399164, "osm_type": "nodes" }, "geometry": { "type": "Point", "coordinates": [ 106.4272728, 49.2356981 ] } },
{ "type": "Feature", "properties": { "name": "Номгон өртөө", "name:en": "Nomgon Station", "railway": "station", "ele": null, "operator:type": null, "layer": null, "addr:full": null, "addr:city": null, "source": null, "name:mn": null, "osm_id": 12525244020, "osm_type": "nodes" }, "geometry": { "type": "Point", "coordinates": [ 109.033484, 44.1114868 ] } },
{ "type": "Feature", "properties": { "name": "呼仍努如", "name:en": null, "railway": "station", "ele": null, "operator:type": null, "layer": null, "addr:full": null, "addr:city": null, "source": null, "name:mn": null, "osm_id": 13406991165, "osm_type": "nodes" }, "geometry": { "type": "Point", "coordinates": [ 101.9269788, 41.9941158 ] } },
{ "type": "Feature", "properties": { "name": "Ханги өртөө", "name:en": "Khangi Station", "railway": "station", "ele": null, "operator:type": null, "layer": null, "addr:full": null, "addr:city": null, "source": null, "name:mn": null, "osm_id": 12522713710, "osm_type": "nodes" }, "geometry": { "type": "Point", "coordinates": [ 109.7990546, 42.6137809 ] } },
{ "type": "Feature", "properties": { "name": "Амгалан", "name:en": "Amgalan", "railway": "station", "ele": null, "operator:type": null, "layer": null, "addr:full": null, "addr:city": null, "source": null, "name:mn": null, "osm_id": 2472141881, "osm_type": "nodes" }, "geometry": { "type": "Point", "coordinates": [ 107.0143647, 47.9031295 ] } },
{ "type": "Feature", "properties": { "name": "Багануур", "name:en": "Baganuur", "railway": "station", "ele": null, "operator:type": null, "layer": null, "addr:full": null, "addr:city": null, "source": null, "name:mn": null, "osm_id": 10000593685, "osm_type": "nodes" }, "geometry": { "type": "Point", "coordinates": [ 108.3713776, 47.7607508 ] } },
{ "type": "Feature", "properties": { "name": "Нартын хошуу", "name:en": "Nartynkhoshuu", "railway": "station", "ele": null, "operator:type": null, "layer": null, "addr:full": null, "addr:city": null, "source": null, "name:mn": null, "osm_id": 2472141713, "osm_type": "nodes" }, "geometry": { "type": "Point", "coordinates": [ 111.5690263, 43.9776436 ] } },
{ "type": "Feature", "properties": { "name": "Түшлэг", "name:en": "Tushleg", "railway": "station", "ele": null, "operator:type": null, "layer": null, "addr:full": null, "addr:city": null, "source": null, "name:mn": null, "osm_id": 2472141758, "osm_type": "nodes" }, "geometry": { "type": "Point", "coordinates": [ 110.3985144, 44.7880382 ] } },
{ "type": "Feature", "properties": { "name": null, "name:en": null, "railway": "station", "ele": null, "operator:type": null, "layer": null, "addr:full": null, "addr:city": null, "source": null, "name:mn": null, "osm_id": 2364173606, "osm_type": "nodes" }, "geometry": { "type": "Point", "coordinates": [ 106.4362561, 49.2292617 ] } }
]
}
