{
"type": "FeatureCollection",
"name": "hotosm_vnm_railways_points_geojson",
"features": [
{ "type": "Feature", "properties": { "name": "Đồng Lê", "name:en": "Dong Le", "railway": "station", "ele": null, "operator:type": null, "layer": null, "addr:full": null, "addr:city": null, "source": null, "name:vi": "Đồng Lê", "osm_id": 4555366194, "osm_type": "nodes" }, "geometry": { "type": "Point", "coordinates": [ 106.0222665, 17.8881144 ] } },
{ "type": "Feature", "properties": { "name": "河口", "name:en": "Hekou", "railway": "station", "ele": null, "operator:type": null, "layer": null, "addr:full": null, "addr:city": null, "source": null, "name:vi": "Hà Khẩu", "osm_id": 3369785952, "osm_type": "nodes" }, "geometry": { "type": "Point", "coordinates": [ 103.9653358, 22.5105228 ] } },
{ "type": "Feature", "properties": { "name": "山腰", "name:en": "Shanyao", "railway": "station", "ele": null, "operator:type": null, "layer": null, "addr:full": null, "addr:city": null, "source": null, "name:vi": null, "osm_id": 3739156389, "osm_type": "nodes" }, "geometry": { "type": "Point", "coordinates": [ 104.0096556, 22.5248568 ] } },
{ "type": "Feature", "properties": { "name": "Đoan Thượng", "name:en": "Doan Thuong", "railway": "station", "ele": null, "operator:type": null, "layer": null, "addr:full": null, "addr:city": null, "source": null, "name:vi": null, "osm_id": 6709101585, "osm_type": "nodes" }, "geometry": { "type": "Point", "coordinates": [ 104.9500985, 21.6198263 ] } },
{ "type": "Feature", "properties": { "name": "Văn Điển", "name:en": "Van Dien", "railway": "station", "ele": null, "operator:type": null, "layer": null, "addr:full": null, "addr:city": null, "source": null, "name:vi": null, "osm_id": 7620011664, "osm_type": "nodes" }, "geometry": { "type": "Point", "coordinates": [ 105.8440259, 20.9442882 ] } },
{ "type": "Feature", "properties": { "name": "Suối Kiết", "name:en": null, "railway": "station", "ele": null, "operator:type": null, "layer": null, "addr:full": null, "addr:city": null, "source": null, "name:vi": null, "osm_id": 4195729192, "osm_type": "nodes" }, "geometry": { "type": "Point", "coordinates": [ 107.6303833, 10.9686706 ] } },
{ "type": "Feature", "properties": { "name": "Nha Trang", "name:en": "Nha Trang", "railway": "station", "ele": null, "operator:type": null, "layer": null, "addr:full": null, "addr:city": null, "source": null, "name:vi": "Nha Trang", "osm_id": 849300601, "osm_type": "nodes" }, "geometry": { "type": "Point", "coordinates": [ 109.1843418, 12.2484492 ] } },
{ "type": "Feature", "properties": { "name": "Quy Nhơn", "name:en": null, "railway": "station", "ele": null, "operator:type": null, "layer": null, "addr:full": null, "addr:city": null, "source": null, "name:vi": null, "osm_id": 1619903005, "osm_type": "nodes" }, "geometry": { "type": "Point", "coordinates": [ 109.2236298, 13.7785498 ] } },
{ "type": "Feature", "properties": { "name": "Cáp treo Tây Thiên", "name:en": null, "railway": "station", "ele": null, "operator:type": null, "layer": null, "addr:full": null, "addr:city": null, "source": null, "name:vi": null, "osm_id": 4904255022, "osm_type": "nodes" }, "geometry": { "type": "Point", "coordinates": [ 105.5917196, 21.4695758 ] } },
{ "type": "Feature", "properties": { "name": "Bắc Ninh", "name:en": "Bac Ninh", "railway": "station", "ele": null, "operator:type": null, "layer": null, "addr:full": null, "addr:city": "Bắc Ninh", "source": null, "name:vi": null, "osm_id": 4736612109, "osm_type": "nodes" }, "geometry": { "type": "Point", "coordinates": [ 106.0562047, 21.1784838 ] } },
{ "type": "Feature", "properties": { "name": "Trái Hút", "name:en": null, "railway": "station", "ele": null, "operator:type": null, "layer": null, "addr:full": null, "addr:city": null, "source": null, "name:vi": null, "osm_id": 11192222674, "osm_type": "nodes" }, "geometry": { "type": "Point", "coordinates": [ 104.5926975, 21.9710275 ] } },
{ "type": "Feature", "properties": { "name": "Từ Sơn", "name:en": "Tu Son", "railway": "station", "ele": null, "operator:type": null, "layer": null, "addr:full": null, "addr:city": "Bắc Ninh", "source": null, "name:vi": null, "osm_id": 7150211290, "osm_type": "nodes" }, "geometry": { "type": "Point", "coordinates": [ 105.9625512, 21.1201079 ] } },
{ "type": "Feature", "properties": { "name": "Hải Dương", "name:en": null, "railway": "station", "ele": null, "operator:type": null, "layer": null, "addr:full": null, "addr:city": null, "source": null, "name:vi": null, "osm_id": 7324224256, "osm_type": "nodes" }, "geometry": { "type": "Point", "coordinates": [ 106.3300268, 20.9473251 ] } },
{ "type": "Feature", "properties": { "name": "Hà Nội", "name:en": "Hanoi", "railway": "station", "ele": null, "operator:type": null, "layer": null, "addr:full": null, "addr:city": "Hà Nội", "source": null, "name:vi": "Hà Nội", "osm_id": 10591743723, "osm_type": "nodes" }, "geometry": { "type": "Point", "coordinates": [ 105.8406959, 21.0242596 ] } },
{ "type": "Feature", "properties": { "name": "Lạng Sơn", "name:en": null, "railway": "station", "ele": null, "operator:type": null, "layer": null, "addr:full": null, "addr:city": null, "source": null, "name:vi": null, "osm_id": 5129681122, "osm_type": "nodes" }, "geometry": { "type": "Point", "coordinates": [ 106.768858, 21.8557378 ] } },
{ "type": "Feature", "properties": { "name": "Đồng Mỏ", "name:en": null, "railway": "station", "ele": null, "operator:type": null, "layer": null, "addr:full": null, "addr:city": null, "source": null, "name:vi": null, "osm_id": 7150257817, "osm_type": "nodes" }, "geometry": { "type": "Point", "coordinates": [ 106.5786214, 21.6526148 ] } },
{ "type": "Feature", "properties": { "name": "Phố Tráng", "name:en": "Pho Trang", "railway": "station", "ele": null, "operator:type": null, "layer": null, "addr:full": null, "addr:city": null, "source": null, "name:vi": null, "osm_id": 7150182167, "osm_type": "nodes" }, "geometry": { "type": "Point", "coordinates": [ 106.2537677, 21.3394444 ] } },
{ "type": "Feature", "properties": { "name": "Phú Diễn", "name:en": null, "railway": "station", "ele": null, "operator:type": null, "layer": null, "addr:full": null, "addr:city": null, "source": null, "name:vi": null, "osm_id": 3567484771, "osm_type": "nodes" }, "geometry": { "type": "Point", "coordinates": [ 105.7648121, 21.0513534 ] } },
{ "type": "Feature", "properties": { "name": "Lang Khay", "name:en": null, "railway": "station", "ele": null, "operator:type": null, "layer": null, "addr:full": null, "addr:city": null, "source": null, "name:vi": null, "osm_id": 8847133070, "osm_type": "nodes" }, "geometry": { "type": "Point", "coordinates": [ 104.4759128, 22.0690381 ] } },
{ "type": "Feature", "properties": { "name": "Lương Sơn", "name:en": null, "railway": "station", "ele": null, "operator:type": null, "layer": null, "addr:full": null, "addr:city": null, "source": null, "name:vi": null, "osm_id": 7555192875, "osm_type": "nodes" }, "geometry": { "type": "Point", "coordinates": [ 109.1949065, 12.3378568 ] } },
{ "type": "Feature", "properties": { "name": "Mộ Đức", "name:en": null, "railway": "station", "ele": null, "operator:type": null, "layer": null, "addr:full": null, "addr:city": null, "source": null, "name:vi": null, "osm_id": 10603321636, "osm_type": "nodes" }, "geometry": { "type": "Point", "coordinates": [ 108.865585, 14.9549147 ] } },
{ "type": "Feature", "properties": { "name": "Nhổn", "name:en": "Nhon", "railway": "station", "ele": null, "operator:type": null, "layer": null, "addr:full": null, "addr:city": null, "source": null, "name:vi": null, "osm_id": 11079400285, "osm_type": "nodes" }, "geometry": { "type": "Point", "coordinates": [ 105.7352317, 21.0525913 ] } },
{ "type": "Feature", "properties": { "name": "Cầu Giấy", "name:en": "Cau Giay", "railway": "station", "ele": null, "operator:type": null, "layer": null, "addr:full": null, "addr:city": null, "source": null, "name:vi": null, "osm_id": 11079400278, "osm_type": "nodes" }, "geometry": { "type": "Point", "coordinates": [ 105.8033629, 21.0292159 ] } },
{ "type": "Feature", "properties": { "name": "Minh Khai", "name:en": "Minh Khai", "railway": "station", "ele": null, "operator:type": null, "layer": null, "addr:full": null, "addr:city": null, "source": null, "name:vi": null, "osm_id": 11079400284, "osm_type": "nodes" }, "geometry": { "type": "Point", "coordinates": [ 105.7448067, 21.0479764 ] } },
{ "type": "Feature", "properties": { "name": "La Thành", "name:en": "La Thanh", "railway": "station", "ele": null, "operator:type": null, "layer": null, "addr:full": null, "addr:city": null, "source": null, "name:vi": null, "osm_id": 11176220550, "osm_type": "nodes" }, "geometry": { "type": "Point", "coordinates": [ 105.8253499, 21.020154 ] } },
{ "type": "Feature", "properties": { "name": "Láng", "name:en": "Lang", "railway": "station", "ele": null, "operator:type": null, "layer": null, "addr:full": null, "addr:city": null, "source": null, "name:vi": null, "osm_id": 11176220552, "osm_type": "nodes" }, "geometry": { "type": "Point", "coordinates": [ 105.816087, 21.0063974 ] } },
{ "type": "Feature", "properties": { "name": "Văn Quán", "name:en": "Van Quan", "railway": "station", "ele": null, "operator:type": null, "layer": null, "addr:full": null, "addr:city": null, "source": null, "name:vi": null, "osm_id": 11176220556, "osm_type": "nodes" }, "geometry": { "type": "Point", "coordinates": [ 105.7847989, 20.9777315 ] } },
{ "type": "Feature", "properties": { "name": "Hà Đông", "name:en": "Ha Dong", "railway": "station", "ele": null, "operator:type": null, "layer": null, "addr:full": null, "addr:city": null, "source": null, "name:vi": null, "osm_id": 11176220557, "osm_type": "nodes" }, "geometry": { "type": "Point", "coordinates": [ 105.7749565, 20.9702189 ] } },
{ "type": "Feature", "properties": { "name": "La Khê", "name:en": "La Khe", "railway": "station", "ele": null, "operator:type": null, "layer": null, "addr:full": null, "addr:city": null, "source": null, "name:vi": null, "osm_id": 11176220558, "osm_type": "nodes" }, "geometry": { "type": "Point", "coordinates": [ 105.7668089, 20.9638323 ] } },
{ "type": "Feature", "properties": { "name": "Văn Khê", "name:en": "Van Khe", "railway": "station", "ele": null, "operator:type": null, "layer": null, "addr:full": null, "addr:city": null, "source": null, "name:vi": null, "osm_id": 11176220559, "osm_type": "nodes" }, "geometry": { "type": "Point", "coordinates": [ 105.7561966, 20.9556405 ] } },
{ "type": "Feature", "properties": { "name": "Thái Hà", "name:en": "Thai Ha", "railway": "station", "ele": null, "operator:type": null, "layer": null, "addr:full": null, "addr:city": null, "source": null, "name:vi": null, "osm_id": 11176220551, "osm_type": "nodes" }, "geometry": { "type": "Point", "coordinates": [ 105.8194727, 21.0145568 ] } },
{ "type": "Feature", "properties": { "name": "Thượng Đình", "name:en": "Thuong Dinh", "railway": "station", "ele": null, "operator:type": null, "layer": null, "addr:full": null, "addr:city": null, "source": null, "name:vi": null, "osm_id": 11176220553, "osm_type": "nodes" }, "geometry": { "type": "Point", "coordinates": [ 105.8122488, 20.9976814 ] } },
{ "type": "Feature", "properties": { "name": "Vành Đai 3", "name:en": "Ring Road 3", "railway": "station", "ele": null, "operator:type": null, "layer": null, "addr:full": null, "addr:city": null, "source": null, "name:vi": null, "osm_id": 11176220554, "osm_type": "nodes" }, "geometry": { "type": "Point", "coordinates": [ 105.8044206, 20.9922989 ] } },
{ "type": "Feature", "properties": { "name": "Phùng Khoang", "name:en": "Phung Khoang", "railway": "station", "ele": null, "operator:type": null, "layer": null, "addr:full": null, "addr:city": null, "source": null, "name:vi": null, "osm_id": 11176220555, "osm_type": "nodes" }, "geometry": { "type": "Point", "coordinates": [ 105.7930553, 20.9842848 ] } },
{ "type": "Feature", "properties": { "name": "Phú Thụy", "name:en": "Phu Thuy", "railway": "station", "ele": null, "operator:type": null, "layer": null, "addr:full": null, "addr:city": null, "source": null, "name:vi": null, "osm_id": 291014382, "osm_type": "nodes" }, "geometry": { "type": "Point", "coordinates": [ 105.962257, 21.0037497 ] } },
{ "type": "Feature", "properties": { "name": "Cầu Bây", "name:en": "Cau Bay", "railway": "station", "ele": null, "operator:type": null, "layer": null, "addr:full": null, "addr:city": "Thành phố Hà Nội", "source": null, "name:vi": null, "osm_id": 10763082224, "osm_type": "nodes" }, "geometry": { "type": "Point", "coordinates": [ 105.9183442, 21.0284287 ] } },
{ "type": "Feature", "properties": { "name": "An Phú", "name:en": "An Phu", "railway": "station", "ele": null, "operator:type": null, "layer": null, "addr:full": null, "addr:city": null, "source": null, "name:vi": null, "osm_id": 11586280301, "osm_type": "nodes" }, "geometry": { "type": "Point", "coordinates": [ 106.7422498, 10.8021337 ] } },
{ "type": "Feature", "properties": { "name": "Bình Thái", "name:en": "Binh Thai", "railway": "station", "ele": null, "operator:type": null, "layer": null, "addr:full": null, "addr:city": null, "source": null, "name:vi": null, "osm_id": 11586280304, "osm_type": "nodes" }, "geometry": { "type": "Point", "coordinates": [ 106.7638944, 10.832652 ] } },
{ "type": "Feature", "properties": { "name": "Khu Công Nghệ Cao", "name:en": "High Tech Park", "railway": "station", "ele": null, "operator:type": null, "layer": null, "addr:full": null, "addr:city": null, "source": null, "name:vi": null, "osm_id": 11586280305, "osm_type": "nodes" }, "geometry": { "type": "Point", "coordinates": [ 106.7888364, 10.8589894 ] } },
{ "type": "Feature", "properties": { "name": "Đại học Quốc gia", "name:en": "National University", "railway": "station", "ele": null, "operator:type": null, "layer": null, "addr:full": null, "addr:city": null, "source": null, "name:vi": null, "osm_id": 11586280306, "osm_type": "nodes" }, "geometry": { "type": "Point", "coordinates": [ 106.8012008, 10.8662985 ] } },
{ "type": "Feature", "properties": { "name": "Bến xe Suối Tiên", "name:en": "Suoi Tien Terminal", "railway": "station", "ele": null, "operator:type": null, "layer": null, "addr:full": null, "addr:city": null, "source": null, "name:vi": null, "osm_id": 11586280307, "osm_type": "nodes" }, "geometry": { "type": "Point", "coordinates": [ 106.8140929, 10.8795447 ] } },
{ "type": "Feature", "properties": { "name": "Rạch Chiếc", "name:en": "Rach Chiec", "railway": "station", "ele": null, "operator:type": null, "layer": null, "addr:full": null, "addr:city": null, "source": null, "name:vi": null, "osm_id": 11586280302, "osm_type": "nodes" }, "geometry": { "type": "Point", "coordinates": [ 106.755277, 10.8085535 ] } },
{ "type": "Feature", "properties": { "name": "Công viên Văn Thánh", "name:en": "Van Thanh Park", "railway": "station", "ele": null, "operator:type": null, "layer": null, "addr:full": null, "addr:city": null, "source": null, "name:vi": null, "osm_id": 11586280298, "osm_type": "nodes" }, "geometry": { "type": "Point", "coordinates": [ 106.7155056, 10.7960548 ] } },
{ "type": "Feature", "properties": { "name": "Thảo Điền", "name:en": "Thao Dien", "railway": "station", "ele": null, "operator:type": null, "layer": null, "addr:full": null, "addr:city": null, "source": null, "name:vi": null, "osm_id": 11586280300, "osm_type": "nodes" }, "geometry": { "type": "Point", "coordinates": [ 106.7336512, 10.8004871 ] } },
{ "type": "Feature", "properties": { "name": "Phước Long", "name:en": "Phuoc Long", "railway": "station", "ele": null, "operator:type": null, "layer": null, "addr:full": null, "addr:city": null, "source": null, "name:vi": null, "osm_id": 11586280303, "osm_type": "nodes" }, "geometry": { "type": "Point", "coordinates": [ 106.758185, 10.821435 ] } },
{ "type": "Feature", "properties": { "name": "Thủ Đức", "name:en": "Thu Duc", "railway": "station", "ele": null, "operator:type": null, "layer": null, "addr:full": null, "addr:city": null, "source": null, "name:vi": null, "osm_id": 11586280327, "osm_type": "nodes" }, "geometry": { "type": "Point", "coordinates": [ 106.7716521, 10.8464061 ] } },
{ "type": "Feature", "properties": { "name": "Đông Anh", "name:en": "Dong Anh", "railway": "station", "ele": null, "operator:type": null, "layer": null, "addr:full": null, "addr:city": null, "source": null, "name:vi": null, "osm_id": 582845534, "osm_type": "nodes" }, "geometry": { "type": "Point", "coordinates": [ 105.8519612, 21.1536239 ] } },
{ "type": "Feature", "properties": { "name": "Chợ Tía", "name:en": null, "railway": "station", "ele": null, "operator:type": null, "layer": null, "addr:full": null, "addr:city": null, "source": null, "name:vi": null, "osm_id": 7790775356, "osm_type": "nodes" }, "geometry": { "type": "Point", "coordinates": [ 105.8844708, 20.8015235 ] } },
{ "type": "Feature", "properties": { "name": "Phú Xuyên", "name:en": null, "railway": "station", "ele": null, "operator:type": null, "layer": null, "addr:full": null, "addr:city": null, "source": null, "name:vi": null, "osm_id": 7790775374, "osm_type": "nodes" }, "geometry": { "type": "Point", "coordinates": [ 105.9129798, 20.7368916 ] } },
{ "type": "Feature", "properties": { "name": "Thường Tín", "name:en": "Thuong Tin", "railway": "station", "ele": null, "operator:type": null, "layer": null, "addr:full": null, "addr:city": null, "source": null, "name:vi": null, "osm_id": 1274537776, "osm_type": "nodes" }, "geometry": { "type": "Point", "coordinates": [ 105.86414, 20.8719979 ] } },
{ "type": "Feature", "properties": { "name": "Giáp Bát", "name:en": null, "railway": "station", "ele": null, "operator:type": null, "layer": null, "addr:full": null, "addr:city": null, "source": null, "name:vi": null, "osm_id": 6418622225, "osm_type": "nodes" }, "geometry": { "type": "Point", "coordinates": [ 105.8405631, 20.9785715 ] } },
{ "type": "Feature", "properties": { "name": "Ngòi Hóp", "name:en": null, "railway": "station", "ele": null, "operator:type": null, "layer": null, "addr:full": null, "addr:city": null, "source": null, "name:vi": null, "osm_id": 13073906500, "osm_type": "nodes" }, "geometry": { "type": "Point", "coordinates": [ 104.7547032, 21.8226936 ] } },
{ "type": "Feature", "properties": { "name": "Lim", "name:en": "Lim", "railway": "station", "ele": null, "operator:type": null, "layer": null, "addr:full": null, "addr:city": "Bắc Ninh", "source": null, "name:vi": null, "osm_id": 7150207236, "osm_type": "nodes" }, "geometry": { "type": "Point", "coordinates": [ 106.0182794, 21.145452 ] } },
{ "type": "Feature", "properties": { "name": "Lào Cai", "name:en": "Lao Cai", "railway": "station", "ele": null, "operator:type": null, "layer": null, "addr:full": null, "addr:city": null, "source": null, "name:vi": "Lào Cai", "osm_id": 941741781, "osm_type": "nodes" }, "geometry": { "type": "Point", "coordinates": [ 103.9783871, 22.4922679 ] } },
{ "type": "Feature", "properties": { "name": "Mường Hoa", "name:en": "Mường Hoa", "railway": "station", "ele": null, "operator:type": null, "layer": null, "addr:full": null, "addr:city": null, "source": null, "name:vi": null, "osm_id": 5592212588, "osm_type": "nodes" }, "geometry": { "type": "Point", "coordinates": [ 103.8249997, 22.3366201 ] } },
{ "type": "Feature", "properties": { "name": "Chí Thạnh", "name:en": null, "railway": "station", "ele": null, "operator:type": null, "layer": null, "addr:full": null, "addr:city": null, "source": null, "name:vi": null, "osm_id": 2684333243, "osm_type": "nodes" }, "geometry": { "type": "Point", "coordinates": [ 109.2194064, 13.3051342 ] } },
{ "type": "Feature", "properties": { "name": "Bình Triệu", "name:en": null, "railway": "station", "ele": null, "operator:type": null, "layer": null, "addr:full": null, "addr:city": null, "source": null, "name:vi": null, "osm_id": 2891038201, "osm_type": "nodes" }, "geometry": { "type": "Point", "coordinates": [ 106.7159069, 10.8273477 ] } },
{ "type": "Feature", "properties": { "name": "Hiền Sỹ", "name:en": null, "railway": "station", "ele": null, "operator:type": null, "layer": null, "addr:full": null, "addr:city": null, "source": null, "name:vi": null, "osm_id": 10591199065, "osm_type": "nodes" }, "geometry": { "type": "Point", "coordinates": [ 107.4325496, 16.5290238 ] } },
{ "type": "Feature", "properties": { "name": "Bắc Hồng", "name:en": null, "railway": "station", "ele": null, "operator:type": null, "layer": null, "addr:full": null, "addr:city": null, "source": null, "name:vi": null, "osm_id": 7822861835, "osm_type": "nodes" }, "geometry": { "type": "Point", "coordinates": [ 105.7996978, 21.1717838 ] } },
{ "type": "Feature", "properties": { "name": "Bắc Lệ", "name:en": null, "railway": "station", "ele": null, "operator:type": null, "layer": null, "addr:full": null, "addr:city": null, "source": null, "name:vi": null, "osm_id": 7150223982, "osm_type": "nodes" }, "geometry": { "type": "Point", "coordinates": [ 106.4312722, 21.5152646 ] } },
{ "type": "Feature", "properties": { "name": "Phố Vị", "name:en": null, "railway": "station", "ele": null, "operator:type": null, "layer": null, "addr:full": null, "addr:city": null, "source": null, "name:vi": null, "osm_id": 7150234493, "osm_type": "nodes" }, "geometry": { "type": "Point", "coordinates": [ 106.3781809, 21.4728212 ] } },
{ "type": "Feature", "properties": { "name": "Ga Kim Liên", "name:en": "Kim Liên", "railway": "station", "ele": null, "operator:type": null, "layer": null, "addr:full": null, "addr:city": "Đà Nẵng", "source": null, "name:vi": "Ga Kim Liên", "osm_id": 7792969605, "osm_type": "nodes" }, "geometry": { "type": "Point", "coordinates": [ 108.1205673, 16.1333999 ] } },
{ "type": "Feature", "properties": { "name": "Bình Khánh", "name:en": null, "railway": "station", "ele": null, "operator:type": null, "layer": null, "addr:full": null, "addr:city": null, "source": null, "name:vi": null, "osm_id": 13316138905, "osm_type": "nodes" }, "geometry": { "type": "Point", "coordinates": [ 106.785637, 10.6461789 ] } },
{ "type": "Feature", "properties": { "name": "Tân Thuận", "name:en": null, "railway": "station", "ele": null, "operator:type": null, "layer": null, "addr:full": null, "addr:city": null, "source": null, "name:vi": null, "osm_id": 13318786430, "osm_type": "nodes" }, "geometry": { "type": "Point", "coordinates": [ 106.7246214, 10.7242642 ] } },
{ "type": "Feature", "properties": { "name": "Nhà Bè", "name:en": null, "railway": "station", "ele": null, "operator:type": null, "layer": null, "addr:full": null, "addr:city": null, "source": null, "name:vi": null, "osm_id": 13319533422, "osm_type": "nodes" }, "geometry": { "type": "Point", "coordinates": [ 106.7327077, 10.689951 ] } },
{ "type": "Feature", "properties": { "name": "Cà Ná", "name:en": null, "railway": "station", "ele": null, "operator:type": null, "layer": null, "addr:full": null, "addr:city": null, "source": null, "name:vi": null, "osm_id": 11197199491, "osm_type": "nodes" }, "geometry": { "type": "Point", "coordinates": [ 108.8766794, 11.3521699 ] } },
{ "type": "Feature", "properties": { "name": "Vĩnh Hảo", "name:en": null, "railway": "station", "ele": null, "operator:type": null, "layer": null, "addr:full": null, "addr:city": null, "source": null, "name:vi": null, "osm_id": 11197199499, "osm_type": "nodes" }, "geometry": { "type": "Point", "coordinates": [ 108.7416995, 11.3090593 ] } },
{ "type": "Feature", "properties": { "name": "Hải Vân Bắc", "name:en": "Hai Van North", "railway": "station", "ele": null, "operator:type": null, "layer": null, "addr:full": null, "addr:city": null, "source": null, "name:vi": null, "osm_id": 668687991, "osm_type": "nodes" }, "geometry": { "type": "Point", "coordinates": [ 108.1160361, 16.211584 ] } },
{ "type": "Feature", "properties": { "name": "Hòa Trinh", "name:en": null, "railway": "station", "ele": null, "operator:type": null, "layer": null, "addr:full": null, "addr:city": null, "source": null, "name:vi": null, "osm_id": 11196150541, "osm_type": "nodes" }, "geometry": { "type": "Point", "coordinates": [ 108.911288, 11.4987314 ] } },
{ "type": "Feature", "properties": { "name": "Kà Rôm", "name:en": null, "railway": "station", "ele": null, "operator:type": null, "layer": null, "addr:full": null, "addr:city": null, "source": null, "name:vi": null, "osm_id": 11196144730, "osm_type": "nodes" }, "geometry": { "type": "Point", "coordinates": [ 109.0791782, 11.7795522 ] } },
{ "type": "Feature", "properties": { "name": "Hà Đông", "name:en": null, "railway": "station", "ele": null, "operator:type": null, "layer": null, "addr:full": null, "addr:city": null, "source": null, "name:vi": null, "osm_id": 8280839245, "osm_type": "nodes" }, "geometry": { "type": "Point", "coordinates": [ 105.7603422, 20.9528886 ] } },
{ "type": "Feature", "properties": { "name": "Cổ Loa", "name:en": "Co Loa", "railway": "station", "ele": null, "operator:type": null, "layer": null, "addr:full": null, "addr:city": null, "source": null, "name:vi": null, "osm_id": 7152806801, "osm_type": "nodes" }, "geometry": { "type": "Point", "coordinates": [ 105.8734736, 21.1332911 ] } },
{ "type": "Feature", "properties": { "name": "Hải Vân", "name:en": "Hai Van", "railway": "station", "ele": null, "operator:type": null, "layer": null, "addr:full": null, "addr:city": null, "source": null, "name:vi": null, "osm_id": 7792969603, "osm_type": "nodes" }, "geometry": { "type": "Point", "coordinates": [ 108.1511372, 16.1937787 ] } },
{ "type": "Feature", "properties": { "name": "Hải Vân Nam", "name:en": "Hai Van South", "railway": "station", "ele": null, "operator:type": null, "layer": null, "addr:full": null, "addr:city": null, "source": null, "name:vi": "Hải Vân Nam", "osm_id": 7792969604, "osm_type": "nodes" }, "geometry": { "type": "Point", "coordinates": [ 108.1369469, 16.170584 ] } },
{ "type": "Feature", "properties": { "name": "Hoàn Lão", "name:en": null, "railway": "station", "ele": null, "operator:type": null, "layer": null, "addr:full": null, "addr:city": null, "source": null, "name:vi": null, "osm_id": 10591198977, "osm_type": "nodes" }, "geometry": { "type": "Point", "coordinates": [ 106.5223304, 17.5763906 ] } },
{ "type": "Feature", "properties": { "name": "Đặng Xá", "name:en": null, "railway": "station", "ele": null, "operator:type": null, "layer": null, "addr:full": null, "addr:city": null, "source": null, "name:vi": null, "osm_id": 7790892566, "osm_type": "nodes" }, "geometry": { "type": "Point", "coordinates": [ 106.118664, 20.4419309 ] } },
{ "type": "Feature", "properties": { "name": "Cảng Cái Lân", "name:en": null, "railway": "station", "ele": null, "operator:type": null, "layer": null, "addr:full": null, "addr:city": null, "source": null, "name:vi": null, "osm_id": 6315983765, "osm_type": "nodes" }, "geometry": { "type": "Point", "coordinates": [ 107.0523986, 20.9699203 ] } },
{ "type": "Feature", "properties": { "name": "Lệ Kỳ", "name:en": null, "railway": "station", "ele": null, "operator:type": null, "layer": null, "addr:full": null, "addr:city": null, "source": null, "name:vi": null, "osm_id": 7793289202, "osm_type": "nodes" }, "geometry": { "type": "Point", "coordinates": [ 106.608116, 17.405123 ] } },
{ "type": "Feature", "properties": { "name": "Sapa", "name:en": null, "railway": "station", "ele": null, "operator:type": null, "layer": null, "addr:full": null, "addr:city": null, "source": null, "name:vi": null, "osm_id": 7121064062, "osm_type": "nodes" }, "geometry": { "type": "Point", "coordinates": [ 103.8403745, 22.3342559 ] } },
{ "type": "Feature", "properties": { "name": "Đỗ Quyên", "name:en": "Do Quyen", "railway": "station", "ele": "3056", "operator:type": null, "layer": null, "addr:full": null, "addr:city": null, "source": null, "name:vi": null, "osm_id": 5592212596, "osm_type": "nodes" }, "geometry": { "type": "Point", "coordinates": [ 103.7753106, 22.3052745 ] } },
{ "type": "Feature", "properties": { "name": "Yên Cư", "name:en": null, "railway": "station", "ele": null, "operator:type": null, "layer": null, "addr:full": null, "addr:city": null, "source": null, "name:vi": null, "osm_id": 7153114844, "osm_type": "nodes" }, "geometry": { "type": "Point", "coordinates": [ 106.915292, 20.9839535 ] } },
{ "type": "Feature", "properties": { "name": "Ga Long Đại", "name:en": null, "railway": "station", "ele": null, "operator:type": null, "layer": null, "addr:full": null, "addr:city": null, "source": null, "name:vi": null, "osm_id": 7793297860, "osm_type": "nodes" }, "geometry": { "type": "Point", "coordinates": [ 106.6270958, 17.3192532 ] } },
{ "type": "Feature", "properties": { "name": "Yên Bái", "name:en": null, "railway": "station", "ele": null, "operator:type": null, "layer": null, "addr:full": null, "addr:city": null, "source": null, "name:vi": null, "osm_id": 6937762808, "osm_type": "nodes" }, "geometry": { "type": "Point", "coordinates": [ 104.880732, 21.7024241 ] } },
{ "type": "Feature", "properties": { "name": "Bảo Sơn", "name:en": null, "railway": "station", "ele": null, "operator:type": null, "layer": null, "addr:full": null, "addr:city": null, "source": null, "name:vi": null, "osm_id": 7153112454, "osm_type": "nodes" }, "geometry": { "type": "Point", "coordinates": [ 106.3172282, 21.3696409 ] } },
{ "type": "Feature", "properties": { "name": "Bắc Giang", "name:en": "Bac Giang", "railway": "station", "ele": null, "operator:type": null, "layer": null, "addr:full": null, "addr:city": null, "source": null, "name:vi": null, "osm_id": 7150194822, "osm_type": "nodes" }, "geometry": { "type": "Point", "coordinates": [ 106.1916752, 21.2788349 ] } },
{ "type": "Feature", "properties": { "name": "Thị Cầu", "name:en": "Thi Cau", "railway": "station", "ele": null, "operator:type": null, "layer": null, "addr:full": null, "addr:city": "Bắc Ninh", "source": null, "name:vi": null, "osm_id": 7150218749, "osm_type": "nodes" }, "geometry": { "type": "Point", "coordinates": [ 106.0816343, 21.1949755 ] } },
{ "type": "Feature", "properties": { "name": "Đông Hà", "name:en": "Dong Ha", "railway": "station", "ele": null, "operator:type": null, "layer": null, "addr:full": null, "addr:city": null, "source": null, "name:vi": null, "osm_id": 5406339022, "osm_type": "nodes" }, "geometry": { "type": "Point", "coordinates": [ 107.1119674, 16.8112735 ] } },
{ "type": "Feature", "properties": { "name": "Thanh Hóa", "name:en": "Thanh Hoa", "railway": "station", "ele": null, "operator:type": null, "layer": null, "addr:full": null, "addr:city": null, "source": null, "name:vi": null, "osm_id": 4195713190, "osm_type": "nodes" }, "geometry": { "type": "Point", "coordinates": [ 105.7677621, 19.8128131 ] } },
{ "type": "Feature", "properties": { "name": "Tiên An", "name:en": null, "railway": "station", "ele": null, "operator:type": null, "layer": null, "addr:full": null, "addr:city": null, "source": null, "name:vi": null, "osm_id": 10591199019, "osm_type": "nodes" }, "geometry": { "type": "Point", "coordinates": [ 107.030671, 16.9779693 ] } },
{ "type": "Feature", "properties": { "name": "Gia Lâm", "name:en": "Gia Lam", "railway": "station", "ele": null, "operator:type": null, "layer": null, "addr:full": null, "addr:city": "Hà Nội", "source": null, "name:vi": null, "osm_id": 312949392, "osm_type": "nodes" }, "geometry": { "type": "Point", "coordinates": [ 105.8786414, 21.051718 ] } },
{ "type": "Feature", "properties": { "name": "Yên Nghĩa", "name:en": "Yen Nghia", "railway": "station", "ele": null, "operator:type": null, "layer": null, "addr:full": null, "addr:city": null, "source": null, "name:vi": null, "osm_id": 11176220560, "osm_type": "nodes" }, "geometry": { "type": "Point", "coordinates": [ 105.7484253, 20.9497797 ] } },
{ "type": "Feature", "properties": { "name": "Bảo Hà", "name:en": null, "railway": "station", "ele": null, "operator:type": null, "layer": null, "addr:full": null, "addr:city": null, "source": null, "name:vi": null, "osm_id": 4195728890, "osm_type": "nodes" }, "geometry": { "type": "Point", "coordinates": [ 104.3551637, 22.1785199 ] } },
{ "type": "Feature", "properties": { "name": "Cần Giờ", "name:en": null, "railway": "station", "ele": null, "operator:type": null, "layer": null, "addr:full": null, "addr:city": null, "source": null, "name:vi": null, "osm_id": 13316655061, "osm_type": "nodes" }, "geometry": { "type": "Point", "coordinates": [ 106.9315647, 10.393368 ] } },
{ "type": "Feature", "properties": { "name": "Đồng Hới", "name:en": "Dong Hoi", "railway": "station", "ele": null, "operator:type": null, "layer": null, "addr:full": null, "addr:city": "Thành phố Đồng Hới", "source": null, "name:vi": null, "osm_id": 5406339121, "osm_type": "nodes" }, "geometry": { "type": "Point", "coordinates": [ 106.5998415, 17.4689738 ] } },
{ "type": "Feature", "properties": { "name": "Trại Mát", "name:en": null, "railway": "station", "ele": null, "operator:type": null, "layer": null, "addr:full": null, "addr:city": null, "source": null, "name:vi": null, "osm_id": 3377406129, "osm_type": "nodes" }, "geometry": { "type": "Point", "coordinates": [ 108.5014597, 11.946116 ] } },
{ "type": "Feature", "properties": { "name": "Nam Định", "name:en": "Nam Dinh", "railway": "station", "ele": null, "operator:type": null, "layer": null, "addr:full": null, "addr:city": "Nam Định", "source": null, "name:vi": null, "osm_id": 2028140282, "osm_type": "nodes" }, "geometry": { "type": "Point", "coordinates": [ 106.1644431, 20.4214487 ] } },
{ "type": "Feature", "properties": { "name": "Thanh Khê", "name:en": "Thanh Khe", "railway": "station", "ele": null, "operator:type": null, "layer": null, "addr:full": null, "addr:city": "Đà Nẵng", "source": null, "name:vi": null, "osm_id": 6576321471, "osm_type": "nodes" }, "geometry": { "type": "Point", "coordinates": [ 108.1823684, 16.0664101 ] } },
{ "type": "Feature", "properties": { "name": "Diêu Trì", "name:en": "Dieu Tri", "railway": "station", "ele": null, "operator:type": null, "layer": null, "addr:full": null, "addr:city": null, "source": null, "name:vi": null, "osm_id": 5406339026, "osm_type": "nodes" }, "geometry": { "type": "Point", "coordinates": [ 109.1437149, 13.8071597 ] } },
{ "type": "Feature", "properties": { "name": "Tuy Hòa", "name:en": "Tuy Hoa", "railway": "station", "ele": null, "operator:type": null, "layer": null, "addr:full": null, "addr:city": null, "source": null, "name:vi": null, "osm_id": 668466047, "osm_type": "nodes" }, "geometry": { "type": "Point", "coordinates": [ 109.2972813, 13.0881891 ] } },
{ "type": "Feature", "properties": { "name": "Phủ Lý", "name:en": "Phu Ly", "railway": "station", "ele": null, "operator:type": null, "layer": null, "addr:full": null, "addr:city": null, "source": null, "name:vi": null, "osm_id": 7153174448, "osm_type": "nodes" }, "geometry": { "type": "Point", "coordinates": [ 105.9130385, 20.540602 ] } },
{ "type": "Feature", "properties": { "name": "Hải Phòng", "name:en": "Haiphong", "railway": "station", "ele": null, "operator:type": null, "layer": null, "addr:full": null, "addr:city": null, "source": null, "name:vi": null, "osm_id": 11188145610, "osm_type": "nodes" }, "geometry": { "type": "Point", "coordinates": [ 106.6875207, 20.856022 ] } },
{ "type": "Feature", "properties": { "name": "Đồng Đăng", "name:en": "Dong Dang", "railway": "station", "ele": null, "operator:type": null, "layer": null, "addr:full": null, "addr:city": null, "source": "GPS", "name:vi": null, "osm_id": 6300643433, "osm_type": "nodes" }, "geometry": { "type": "Point", "coordinates": [ 106.6976298, 21.9430048 ] } },
{ "type": "Feature", "properties": { "name": "Tháp Chàm", "name:en": "Thap Cham", "railway": "station", "ele": null, "operator:type": null, "layer": null, "addr:full": null, "addr:city": null, "source": null, "name:vi": "Tháp Chàm", "osm_id": 667360878, "osm_type": "nodes" }, "geometry": { "type": "Point", "coordinates": [ 108.9499981, 11.5971898 ] } },
{ "type": "Feature", "properties": { "name": "Cầu Diễn", "name:en": "Cau Dien", "railway": "station", "ele": null, "operator:type": null, "layer": null, "addr:full": null, "addr:city": null, "source": null, "name:vi": null, "osm_id": 11079400282, "osm_type": "nodes" }, "geometry": { "type": "Point", "coordinates": [ 105.7626912, 21.0412207 ] } },
{ "type": "Feature", "properties": { "name": "Phú Diễn", "name:en": "Phu Dien", "railway": "station", "ele": null, "operator:type": null, "layer": null, "addr:full": null, "addr:city": null, "source": null, "name:vi": null, "osm_id": 11079400283, "osm_type": "nodes" }, "geometry": { "type": "Point", "coordinates": [ 105.7552704, 21.0439219 ] } },
{ "type": "Feature", "properties": { "name": "Lê Đức Thọ", "name:en": "Le Duc Tho", "railway": "station", "ele": null, "operator:type": null, "layer": null, "addr:full": null, "addr:city": null, "source": null, "name:vi": null, "osm_id": 11079400281, "osm_type": "nodes" }, "geometry": { "type": "Point", "coordinates": [ 105.7729903, 21.0380465 ] } },
{ "type": "Feature", "properties": { "name": "Kim Nỗ", "name:en": null, "railway": "station", "ele": null, "operator:type": null, "layer": null, "addr:full": null, "addr:city": null, "source": null, "name:vi": null, "osm_id": 11222559665, "osm_type": "nodes" }, "geometry": { "type": "Point", "coordinates": [ 105.7901735, 21.1427266 ] } },
{ "type": "Feature", "properties": { "name": "Phúc Tự", "name:en": "Phuc Tu Station", "railway": "station", "ele": null, "operator:type": null, "layer": null, "addr:full": null, "addr:city": null, "source": null, "name:vi": null, "osm_id": 9150407283, "osm_type": "nodes" }, "geometry": { "type": "Point", "coordinates": [ 106.5433044, 17.5519307 ] } },
{ "type": "Feature", "properties": { "name": "Yên Xuân", "name:en": null, "railway": "station", "ele": null, "operator:type": null, "layer": null, "addr:full": null, "addr:city": null, "source": null, "name:vi": null, "osm_id": 7792897579, "osm_type": "nodes" }, "geometry": { "type": "Point", "coordinates": [ 105.6196832, 18.603219 ] } },
{ "type": "Feature", "properties": { "name": "Mỹ Lý", "name:en": null, "railway": "station", "ele": null, "operator:type": null, "layer": null, "addr:full": null, "addr:city": null, "source": null, "name:vi": null, "osm_id": 7791620494, "osm_type": "nodes" }, "geometry": { "type": "Point", "coordinates": [ 105.6016766, 18.89784 ] } },
{ "type": "Feature", "properties": { "name": "Bàn Cờ", "name:en": null, "railway": "station", "ele": null, "operator:type": null, "layer": null, "addr:full": null, "addr:city": null, "source": null, "name:vi": null, "osm_id": 11222530953, "osm_type": "nodes" }, "geometry": { "type": "Point", "coordinates": [ 106.7779256, 21.0324321 ] } },
{ "type": "Feature", "properties": { "name": "Cổ Thành", "name:en": null, "railway": "station", "ele": null, "operator:type": null, "layer": null, "addr:full": null, "addr:city": null, "source": null, "name:vi": null, "osm_id": 11222530955, "osm_type": "nodes" }, "geometry": { "type": "Point", "coordinates": [ 106.3330664, 21.110389 ] } },
{ "type": "Feature", "properties": { "name": "Thọ Lộc", "name:en": null, "railway": "station", "ele": null, "operator:type": null, "layer": null, "addr:full": null, "addr:city": null, "source": null, "name:vi": null, "osm_id": 10591198968, "osm_type": "nodes" }, "geometry": { "type": "Point", "coordinates": [ 106.4589095, 17.6193199 ] } },
{ "type": "Feature", "properties": { "name": "Hoà Duyệt", "name:en": null, "railway": "station", "ele": null, "operator:type": null, "layer": null, "addr:full": null, "addr:city": null, "source": null, "name:vi": null, "osm_id": 9811923309, "osm_type": "nodes" }, "geometry": { "type": "Point", "coordinates": [ 105.6021471, 18.3828181 ] } },
{ "type": "Feature", "properties": { "name": "Đức Lạc", "name:en": null, "railway": "station", "ele": null, "operator:type": null, "layer": null, "addr:full": null, "addr:city": null, "source": null, "name:vi": null, "osm_id": 9811923291, "osm_type": "nodes" }, "geometry": { "type": "Point", "coordinates": [ 105.582429, 18.4827261 ] } },
{ "type": "Feature", "properties": { "name": "Chợ Sy", "name:en": "Cho Sy Train Station", "railway": "station", "ele": null, "operator:type": null, "layer": null, "addr:full": null, "addr:city": null, "source": null, "name:vi": null, "osm_id": 4195713389, "osm_type": "nodes" }, "geometry": { "type": "Point", "coordinates": [ 105.5761832, 19.0083207 ] } },
{ "type": "Feature", "properties": { "name": "Tân Vinh", "name:en": null, "railway": "station", "ele": null, "operator:type": null, "layer": null, "addr:full": null, "addr:city": null, "source": null, "name:vi": null, "osm_id": 1683137837, "osm_type": "nodes" }, "geometry": { "type": "Point", "coordinates": [ 109.0501803, 13.7083425 ] } },
{ "type": "Feature", "properties": { "name": "Tam Thành", "name:en": null, "railway": "station", "ele": null, "operator:type": null, "layer": null, "addr:full": null, "addr:city": null, "source": null, "name:vi": null, "osm_id": 10599280817, "osm_type": "nodes" }, "geometry": { "type": "Point", "coordinates": [ 108.4186869, 15.6134539 ] } },
{ "type": "Feature", "properties": { "name": "Diêm Phổ", "name:en": null, "railway": "station", "ele": null, "operator:type": null, "layer": null, "addr:full": null, "addr:city": null, "source": null, "name:vi": null, "osm_id": 10599280833, "osm_type": "nodes" }, "geometry": { "type": "Point", "coordinates": [ 108.5873091, 15.4768789 ] } },
{ "type": "Feature", "properties": { "name": "Đồng Chuối", "name:en": null, "railway": "station", "ele": null, "operator:type": null, "layer": null, "addr:full": null, "addr:city": null, "source": null, "name:vi": null, "osm_id": 3555952330, "osm_type": "nodes" }, "geometry": { "type": "Point", "coordinates": [ 105.9046992, 18.0085054 ] } },
{ "type": "Feature", "properties": { "name": "La Khê", "name:en": null, "railway": "station", "ele": null, "operator:type": null, "layer": null, "addr:full": null, "addr:city": null, "source": null, "name:vi": null, "osm_id": 11222287751, "osm_type": "nodes" }, "geometry": { "type": "Point", "coordinates": [ 105.8265698, 18.0624288 ] } },
{ "type": "Feature", "properties": { "name": "Nghi Long", "name:en": null, "railway": "station", "ele": null, "operator:type": null, "layer": null, "addr:full": null, "addr:city": null, "source": null, "name:vi": null, "osm_id": 11222311041, "osm_type": "nodes" }, "geometry": { "type": "Point", "coordinates": [ 105.6580291, 18.8254529 ] } },
{ "type": "Feature", "properties": { "name": "Trường Lâm", "name:en": null, "railway": "station", "ele": null, "operator:type": null, "layer": null, "addr:full": null, "addr:city": null, "source": null, "name:vi": null, "osm_id": 11222300375, "osm_type": "nodes" }, "geometry": { "type": "Point", "coordinates": [ 105.7203367, 19.3155841 ] } },
{ "type": "Feature", "properties": { "name": "Hoà Tân", "name:en": null, "railway": "station", "ele": null, "operator:type": null, "layer": null, "addr:full": null, "addr:city": null, "source": null, "name:vi": null, "osm_id": 4310182889, "osm_type": "nodes" }, "geometry": { "type": "Point", "coordinates": [ 109.0988856, 12.1217663 ] } },
{ "type": "Feature", "properties": { "name": "Kà Rôm", "name:en": null, "railway": "station", "ele": null, "operator:type": null, "layer": null, "addr:full": null, "addr:city": null, "source": null, "name:vi": null, "osm_id": 11218981866, "osm_type": "nodes" }, "geometry": { "type": "Point", "coordinates": [ 109.0508333, 11.7178503 ] } },
{ "type": "Feature", "properties": { "name": "Tân Cảng", "name:en": "Tan Cang", "railway": "station", "ele": null, "operator:type": null, "layer": null, "addr:full": null, "addr:city": null, "source": null, "name:vi": null, "osm_id": 11586280299, "osm_type": "nodes" }, "geometry": { "type": "Point", "coordinates": [ 106.7232392, 10.7985879 ] } },
{ "type": "Feature", "properties": { "name": "Sông Phan", "name:en": "Song Phan Station", "railway": "station", "ele": null, "operator:type": null, "layer": null, "addr:full": null, "addr:city": null, "source": null, "name:vi": "Sông Phan", "osm_id": 305328667, "osm_type": "nodes" }, "geometry": { "type": "Point", "coordinates": [ 107.7519491, 10.8742779 ] } },
{ "type": "Feature", "properties": { "name": "Suối Vận", "name:en": null, "railway": "station", "ele": null, "operator:type": null, "layer": null, "addr:full": null, "addr:city": null, "source": null, "name:vi": null, "osm_id": 305329053, "osm_type": "nodes" }, "geometry": { "type": "Point", "coordinates": [ 107.8679457, 10.9208283 ] } },
{ "type": "Feature", "properties": { "name": "Biên Hòa", "name:en": "Bien Hoa", "railway": "station", "ele": null, "operator:type": null, "layer": null, "addr:full": null, "addr:city": null, "source": null, "name:vi": null, "osm_id": 10591979654, "osm_type": "nodes" }, "geometry": { "type": "Point", "coordinates": [ 106.8263284, 10.9507929 ] } },
{ "type": "Feature", "properties": { "name": "Bình Thuận", "name:en": "Binh Thuan", "railway": "station", "ele": null, "operator:type": null, "layer": null, "addr:full": null, "addr:city": null, "source": null, "name:vi": null, "osm_id": 305329259, "osm_type": "nodes" }, "geometry": { "type": "Point", "coordinates": [ 108.0032715, 10.9685906 ] } },
{ "type": "Feature", "properties": { "name": "Long Thạnh", "name:en": "Long Thanh", "railway": "station", "ele": null, "operator:type": null, "layer": null, "addr:full": null, "addr:city": null, "source": null, "name:vi": null, "osm_id": 849260229, "osm_type": "nodes" }, "geometry": { "type": "Point", "coordinates": [ 108.2053878, 11.129215 ] } },
{ "type": "Feature", "properties": { "name": "Phan Thiết", "name:en": "Phan Thiet", "railway": "station", "ele": null, "operator:type": null, "layer": null, "addr:full": null, "addr:city": null, "source": "local_knowledge", "name:vi": "Phan Thiết", "osm_id": 2283324650, "osm_type": "nodes" }, "geometry": { "type": "Point", "coordinates": [ 108.0823313, 10.9418092 ] } },
{ "type": "Feature", "properties": { "name": "Sông Mao", "name:en": null, "railway": "station", "ele": null, "operator:type": null, "layer": null, "addr:full": null, "addr:city": null, "source": null, "name:vi": null, "osm_id": 4195713293, "osm_type": "nodes" }, "geometry": { "type": "Point", "coordinates": [ 108.5059924, 11.2486449 ] } },
{ "type": "Feature", "properties": { "name": "Ma Lâm", "name:en": null, "railway": "station", "ele": null, "operator:type": null, "layer": null, "addr:full": null, "addr:city": null, "source": null, "name:vi": null, "osm_id": 4195724190, "osm_type": "nodes" }, "geometry": { "type": "Point", "coordinates": [ 108.1317062, 11.0724421 ] } },
{ "type": "Feature", "properties": { "name": "Ngã Ba", "name:en": null, "railway": "station", "ele": null, "operator:type": null, "layer": null, "addr:full": null, "addr:city": null, "source": null, "name:vi": null, "osm_id": 4195731789, "osm_type": "nodes" }, "geometry": { "type": "Point", "coordinates": [ 109.1209306, 11.9254424 ] } },
{ "type": "Feature", "properties": { "name": "Giã", "name:en": "Gia", "railway": "station", "ele": null, "operator:type": null, "layer": null, "addr:full": null, "addr:city": null, "source": null, "name:vi": "Giã", "osm_id": 5336413040, "osm_type": "nodes" }, "geometry": { "type": "Point", "coordinates": [ 109.2236432, 12.7000822 ] } },
{ "type": "Feature", "properties": { "name": "Cây Cầy", "name:en": null, "railway": "station", "ele": null, "operator:type": null, "layer": null, "addr:full": null, "addr:city": null, "source": null, "name:vi": null, "osm_id": 4310183289, "osm_type": "nodes" }, "geometry": { "type": "Point", "coordinates": [ 109.0805157, 12.217259 ] } },
{ "type": "Feature", "properties": { "name": "Phú Hiệp", "name:en": null, "railway": "station", "ele": null, "operator:type": null, "layer": null, "addr:full": null, "addr:city": null, "source": null, "name:vi": null, "osm_id": 6514295662, "osm_type": "nodes" }, "geometry": { "type": "Point", "coordinates": [ 109.362038, 12.9997155 ] } },
{ "type": "Feature", "properties": { "name": "Ninh Hòa", "name:en": null, "railway": "station", "ele": null, "operator:type": null, "layer": null, "addr:full": null, "addr:city": null, "source": null, "name:vi": null, "osm_id": 7153457130, "osm_type": "nodes" }, "geometry": { "type": "Point", "coordinates": [ 109.1238365, 12.4894951 ] } },
{ "type": "Feature", "properties": { "name": "Phong Thạnh", "name:en": null, "railway": "station", "ele": null, "operator:type": null, "layer": null, "addr:full": null, "addr:city": null, "source": null, "name:vi": null, "osm_id": 7555189447, "osm_type": "nodes" }, "geometry": { "type": "Point", "coordinates": [ 109.1264253, 12.43325 ] } },
{ "type": "Feature", "properties": { "name": "Suối Cát", "name:en": "Suoi Cat", "railway": "station", "ele": null, "operator:type": null, "layer": null, "addr:full": null, "addr:city": null, "source": null, "name:vi": "Suối Cát", "osm_id": 10175112171, "osm_type": "nodes" }, "geometry": { "type": "Point", "coordinates": [ 109.1239033, 12.0266826 ] } },
{ "type": "Feature", "properties": { "name": "Hòa Huỳnh", "name:en": null, "railway": "station", "ele": null, "operator:type": null, "layer": null, "addr:full": null, "addr:city": null, "source": null, "name:vi": null, "osm_id": 10175113347, "osm_type": "nodes" }, "geometry": { "type": "Point", "coordinates": [ 109.1684722, 12.5745094 ] } },
{ "type": "Feature", "properties": { "name": "Hòa Đa", "name:en": null, "railway": "station", "ele": null, "operator:type": null, "layer": null, "addr:full": null, "addr:city": null, "source": null, "name:vi": null, "osm_id": 10603324466, "osm_type": "nodes" }, "geometry": { "type": "Point", "coordinates": [ 109.2702639, 13.205366 ] } },
{ "type": "Feature", "properties": { "name": "Đông Tác", "name:en": null, "railway": "station", "ele": null, "operator:type": null, "layer": null, "addr:full": null, "addr:city": null, "source": null, "name:vi": null, "osm_id": 10603324471, "osm_type": "nodes" }, "geometry": { "type": "Point", "coordinates": [ 109.3219882, 13.0557624 ] } },
{ "type": "Feature", "properties": { "name": "Hảo Sơn", "name:en": null, "railway": "station", "ele": null, "operator:type": null, "layer": null, "addr:full": null, "addr:city": null, "source": null, "name:vi": null, "osm_id": 10603324485, "osm_type": "nodes" }, "geometry": { "type": "Point", "coordinates": [ 109.3768241, 12.9089432 ] } },
{ "type": "Feature", "properties": { "name": "Đại Lãnh", "name:en": null, "railway": "station", "ele": null, "operator:type": null, "layer": null, "addr:full": null, "addr:city": null, "source": null, "name:vi": null, "osm_id": 10603324492, "osm_type": "nodes" }, "geometry": { "type": "Point", "coordinates": [ 109.3612166, 12.83451 ] } },
{ "type": "Feature", "properties": { "name": "Tu Bông", "name:en": null, "railway": "station", "ele": null, "operator:type": null, "layer": null, "addr:full": null, "addr:city": null, "source": null, "name:vi": null, "osm_id": 10603324493, "osm_type": "nodes" }, "geometry": { "type": "Point", "coordinates": [ 109.3008212, 12.7778113 ] } },
{ "type": "Feature", "properties": { "name": "Phước Nhơn", "name:en": null, "railway": "station", "ele": null, "operator:type": null, "layer": null, "addr:full": null, "addr:city": null, "source": null, "name:vi": null, "osm_id": 11196150537, "osm_type": "nodes" }, "geometry": { "type": "Point", "coordinates": [ 108.9936781, 11.6664954 ] } },
{ "type": "Feature", "properties": { "name": "Phù Cát", "name:en": null, "railway": "station", "ele": null, "operator:type": null, "layer": null, "addr:full": null, "addr:city": null, "source": null, "name:vi": null, "osm_id": 1682858959, "osm_type": "nodes" }, "geometry": { "type": "Point", "coordinates": [ 109.0571611, 13.9944636 ] } },
{ "type": "Feature", "properties": { "name": "Phù Mỹ", "name:en": null, "railway": "station", "ele": null, "operator:type": null, "layer": null, "addr:full": null, "addr:city": null, "source": null, "name:vi": null, "osm_id": 1682858962, "osm_type": "nodes" }, "geometry": { "type": "Point", "coordinates": [ 109.0400681, 14.1844162 ] } },
{ "type": "Feature", "properties": { "name": "Bình Định", "name:en": null, "railway": "station", "ele": null, "operator:type": null, "layer": null, "addr:full": null, "addr:city": null, "source": null, "name:vi": null, "osm_id": 1682867417, "osm_type": "nodes" }, "geometry": { "type": "Point", "coordinates": [ 109.101382, 13.887191 ] } },
{ "type": "Feature", "properties": { "name": "Đức Phổ", "name:en": null, "railway": "station", "ele": null, "operator:type": null, "layer": null, "addr:full": null, "addr:city": null, "source": null, "name:vi": null, "osm_id": 4394346093, "osm_type": "nodes" }, "geometry": { "type": "Point", "coordinates": [ 108.9469832, 14.8098265 ] } },
{ "type": "Feature", "properties": { "name": "Hòa Vinh Tây", "name:en": null, "railway": "station", "ele": null, "operator:type": null, "layer": null, "addr:full": null, "addr:city": null, "source": null, "name:vi": null, "osm_id": 5030628146, "osm_type": "nodes" }, "geometry": { "type": "Point", "coordinates": [ 108.8345365, 15.0228831 ] } },
{ "type": "Feature", "properties": { "name": "Thủy Thạch", "name:en": null, "railway": "station", "ele": null, "operator:type": null, "layer": null, "addr:full": null, "addr:city": null, "source": null, "name:vi": null, "osm_id": 5030628148, "osm_type": "nodes" }, "geometry": { "type": "Point", "coordinates": [ 109.0069528, 14.7526191 ] } },
{ "type": "Feature", "properties": { "name": "Sa Huỳnh", "name:en": null, "railway": "station", "ele": null, "operator:type": null, "layer": null, "addr:full": null, "addr:city": null, "source": null, "name:vi": null, "osm_id": 5030628149, "osm_type": "nodes" }, "geometry": { "type": "Point", "coordinates": [ 109.0652507, 14.6618741 ] } },
{ "type": "Feature", "properties": { "name": "Bồng Sơn", "name:en": null, "railway": "station", "ele": null, "operator:type": null, "layer": null, "addr:full": null, "addr:city": null, "source": null, "name:vi": null, "osm_id": 5030628151, "osm_type": "nodes" }, "geometry": { "type": "Point", "coordinates": [ 109.0192754, 14.4383758 ] } },
{ "type": "Feature", "properties": { "name": "Khánh Phước", "name:en": null, "railway": "station", "ele": null, "operator:type": null, "layer": null, "addr:full": null, "addr:city": null, "source": null, "name:vi": null, "osm_id": 5030628156, "osm_type": "nodes" }, "geometry": { "type": "Point", "coordinates": [ 109.0377788, 14.087374 ] } },
{ "type": "Feature", "properties": { "name": "Thạch Trụ", "name:en": "Thach Tru", "railway": "station", "ele": null, "operator:type": null, "layer": null, "addr:full": null, "addr:city": null, "source": null, "name:vi": null, "osm_id": 5406339025, "osm_type": "nodes" }, "geometry": { "type": "Point", "coordinates": [ 108.9104993, 14.8804972 ] } },
{ "type": "Feature", "properties": { "name": "Quảng Ngãi", "name:en": "Quang Ngai", "railway": "station", "ele": null, "operator:type": null, "layer": null, "addr:full": null, "addr:city": null, "source": null, "name:vi": null, "osm_id": 5737616219, "osm_type": "nodes" }, "geometry": { "type": "Point", "coordinates": [ 108.7813826, 15.1209627 ] } },
{ "type": "Feature", "properties": { "name": "Bình Sơn", "name:en": null, "railway": "station", "ele": null, "operator:type": null, "layer": null, "addr:full": null, "addr:city": null, "source": null, "name:vi": null, "osm_id": 10599280867, "osm_type": "nodes" }, "geometry": { "type": "Point", "coordinates": [ 108.7586373, 15.2872189 ] } },
{ "type": "Feature", "properties": { "name": "Đại Lộc", "name:en": null, "railway": "station", "ele": null, "operator:type": null, "layer": null, "addr:full": null, "addr:city": null, "source": null, "name:vi": null, "osm_id": 10599280876, "osm_type": "nodes" }, "geometry": { "type": "Point", "coordinates": [ 108.7660448, 15.1953462 ] } },
{ "type": "Feature", "properties": { "name": "Vân Canh", "name:en": null, "railway": "station", "ele": null, "operator:type": null, "layer": null, "addr:full": null, "addr:city": null, "source": null, "name:vi": null, "osm_id": 10603324419, "osm_type": "nodes" }, "geometry": { "type": "Point", "coordinates": [ 108.9970771, 13.6212335 ] } },
{ "type": "Feature", "properties": { "name": "Phước Lãnh", "name:en": null, "railway": "station", "ele": null, "operator:type": null, "layer": null, "addr:full": null, "addr:city": null, "source": null, "name:vi": null, "osm_id": 10603324428, "osm_type": "nodes" }, "geometry": { "type": "Point", "coordinates": [ 109.0314283, 13.4859007 ] } },
{ "type": "Feature", "properties": { "name": "Tam Quan", "name:en": null, "railway": "station", "ele": null, "operator:type": null, "layer": null, "addr:full": null, "addr:city": null, "source": null, "name:vi": null, "osm_id": 10603324430, "osm_type": "nodes" }, "geometry": { "type": "Point", "coordinates": [ 109.0435156, 14.5481093 ] } },
{ "type": "Feature", "properties": { "name": "La Hai", "name:en": null, "railway": "station", "ele": null, "operator:type": null, "layer": null, "addr:full": null, "addr:city": null, "source": null, "name:vi": null, "osm_id": 10603324447, "osm_type": "nodes" }, "geometry": { "type": "Point", "coordinates": [ 109.1059103, 13.3815121 ] } },
{ "type": "Feature", "properties": { "name": "Vạn Phú", "name:en": null, "railway": "station", "ele": null, "operator:type": null, "layer": null, "addr:full": null, "addr:city": null, "source": null, "name:vi": null, "osm_id": 1682858966, "osm_type": "nodes" }, "geometry": { "type": "Point", "coordinates": [ 109.0640922, 14.3143343 ] } },
{ "type": "Feature", "properties": { "name": "Sóng Thần", "name:en": "Song Than", "railway": "station", "ele": null, "operator:type": null, "layer": null, "addr:full": null, "addr:city": null, "source": null, "name:vi": null, "osm_id": 11136225851, "osm_type": "nodes" }, "geometry": { "type": "Point", "coordinates": [ 106.7517797, 10.8781962 ] } },
{ "type": "Feature", "properties": { "name": "Hàm Cường Tây", "name:en": null, "railway": "station", "ele": null, "operator:type": null, "layer": null, "addr:full": null, "addr:city": null, "source": null, "name:vi": null, "osm_id": 11197416169, "osm_type": "nodes" }, "geometry": { "type": "Point", "coordinates": [ 107.9434531, 10.9307927 ] } },
{ "type": "Feature", "properties": { "name": "Sông Dinh", "name:en": null, "railway": "station", "ele": null, "operator:type": null, "layer": null, "addr:full": null, "addr:city": null, "source": null, "name:vi": null, "osm_id": 11197416221, "osm_type": "nodes" }, "geometry": { "type": "Point", "coordinates": [ 107.6727371, 10.921289 ] } },
{ "type": "Feature", "properties": { "name": "Sông Lòng Sông", "name:en": null, "railway": "station", "ele": null, "operator:type": null, "layer": null, "addr:full": null, "addr:city": null, "source": null, "name:vi": null, "osm_id": 11197199503, "osm_type": "nodes" }, "geometry": { "type": "Point", "coordinates": [ 108.673566, 11.2634638 ] } },
{ "type": "Feature", "properties": { "name": "Phong Phú", "name:en": null, "railway": "station", "ele": null, "operator:type": null, "layer": null, "addr:full": null, "addr:city": null, "source": null, "name:vi": null, "osm_id": 11197199523, "osm_type": "nodes" }, "geometry": { "type": "Point", "coordinates": [ 108.6072659, 11.2422521 ] } },
{ "type": "Feature", "properties": { "name": "Châu Hanh", "name:en": null, "railway": "station", "ele": null, "operator:type": null, "layer": null, "addr:full": null, "addr:city": null, "source": null, "name:vi": null, "osm_id": 11197231363, "osm_type": "nodes" }, "geometry": { "type": "Point", "coordinates": [ 108.4249711, 11.2276425 ] } },
{ "type": "Feature", "properties": { "name": "Sông Lũy", "name:en": null, "railway": "station", "ele": null, "operator:type": null, "layer": null, "addr:full": null, "addr:city": null, "source": null, "name:vi": null, "osm_id": 11197231388, "osm_type": "nodes" }, "geometry": { "type": "Point", "coordinates": [ 108.3228381, 11.2149604 ] } },
{ "type": "Feature", "properties": { "name": "Vĩnh Tân", "name:en": null, "railway": "station", "ele": null, "operator:type": null, "layer": null, "addr:full": null, "addr:city": null, "source": null, "name:vi": null, "osm_id": 11197231432, "osm_type": "nodes" }, "geometry": { "type": "Point", "coordinates": [ 108.8112846, 11.3259126 ] } },
{ "type": "Feature", "properties": { "name": "Cam Thịnh Đông", "name:en": null, "railway": "station", "ele": null, "operator:type": null, "layer": null, "addr:full": null, "addr:city": null, "source": null, "name:vi": null, "osm_id": 11197231445, "osm_type": "nodes" }, "geometry": { "type": "Point", "coordinates": [ 109.1052608, 11.8592816 ] } },
{ "type": "Feature", "properties": { "name": "Hàm Liêm", "name:en": null, "railway": "station", "ele": null, "operator:type": null, "layer": null, "addr:full": null, "addr:city": null, "source": null, "name:vi": null, "osm_id": 11197231446, "osm_type": "nodes" }, "geometry": { "type": "Point", "coordinates": [ 108.0672471, 11.0272059 ] } },
{ "type": "Feature", "properties": { "name": "Truồi", "name:en": "Truoi", "railway": "station", "ele": null, "operator:type": null, "layer": null, "addr:full": null, "addr:city": null, "source": null, "name:vi": null, "osm_id": 2985592982, "osm_type": "nodes" }, "geometry": { "type": "Point", "coordinates": [ 107.7748461, 16.3193006 ] } },
{ "type": "Feature", "properties": { "name": "Quảng Trị", "name:en": null, "railway": "station", "ele": null, "operator:type": null, "layer": null, "addr:full": null, "addr:city": null, "source": null, "name:vi": null, "osm_id": 10591199029, "osm_type": "nodes" }, "geometry": { "type": "Point", "coordinates": [ 107.1869174, 16.7379644 ] } },
{ "type": "Feature", "properties": { "name": "Mỹ Chánh", "name:en": null, "railway": "station", "ele": null, "operator:type": null, "layer": null, "addr:full": null, "addr:city": null, "source": null, "name:vi": null, "osm_id": 10591199047, "osm_type": "nodes" }, "geometry": { "type": "Point", "coordinates": [ 107.3051028, 16.628535 ] } },
{ "type": "Feature", "properties": { "name": "Trì Bình", "name:en": null, "railway": "station", "ele": null, "operator:type": null, "layer": null, "addr:full": null, "addr:city": null, "source": null, "name:vi": null, "osm_id": 10599280855, "osm_type": "nodes" }, "geometry": { "type": "Point", "coordinates": [ 108.7295218, 15.3490248 ] } },
{ "type": "Feature", "properties": { "name": "Núi Thành", "name:en": null, "railway": "station", "ele": null, "operator:type": null, "layer": null, "addr:full": null, "addr:city": null, "source": null, "name:vi": null, "osm_id": 7153496935, "osm_type": "nodes" }, "geometry": { "type": "Point", "coordinates": [ 108.6697862, 15.4220721 ] } },
{ "type": "Feature", "properties": { "name": "Tam Kỳ", "name:en": "Tam Ky", "railway": "station", "ele": null, "operator:type": null, "layer": null, "addr:full": null, "addr:city": null, "source": null, "name:vi": null, "osm_id": 4195642994, "osm_type": "nodes" }, "geometry": { "type": "Point", "coordinates": [ 108.4839731, 15.5573707 ] } },
{ "type": "Feature", "properties": { "name": "Cầu Hai", "name:en": "Cau Hai", "railway": "station", "ele": null, "operator:type": null, "layer": null, "addr:full": null, "addr:city": null, "source": null, "name:vi": null, "osm_id": 5381117859, "osm_type": "nodes" }, "geometry": { "type": "Point", "coordinates": [ 107.886865, 16.2695877 ] } },
{ "type": "Feature", "properties": { "name": "Phò Trạch", "name:en": "Pho Trach", "railway": "station", "ele": null, "operator:type": null, "layer": null, "addr:full": null, "addr:city": null, "source": null, "name:vi": null, "osm_id": 5406339024, "osm_type": "nodes" }, "geometry": { "type": "Point", "coordinates": [ 107.3623963, 16.5844962 ] } },
{ "type": "Feature", "properties": { "name": "Lệ Trạch", "name:en": "Le Trach", "railway": "station", "ele": null, "operator:type": null, "layer": null, "addr:full": null, "addr:city": null, "source": null, "name:vi": null, "osm_id": 5406339221, "osm_type": "nodes" }, "geometry": { "type": "Point", "coordinates": [ 108.1830392, 15.9704618 ] } },
{ "type": "Feature", "properties": { "name": "Hương Thuỷ", "name:en": "Huong Thuy", "railway": "station", "ele": null, "operator:type": null, "layer": null, "addr:full": null, "addr:city": null, "source": null, "name:vi": null, "osm_id": 2985557733, "osm_type": "nodes" }, "geometry": { "type": "Point", "coordinates": [ 107.6640282, 16.4189998 ] } },
{ "type": "Feature", "properties": { "name": "Diên Sanh", "name:en": null, "railway": "station", "ele": null, "operator:type": null, "layer": null, "addr:full": null, "addr:city": null, "source": null, "name:vi": null, "osm_id": 10591199038, "osm_type": "nodes" }, "geometry": { "type": "Point", "coordinates": [ 107.2475931, 16.6871238 ] } },
{ "type": "Feature", "properties": { "name": "Phú Cang", "name:en": null, "railway": "station", "ele": null, "operator:type": null, "layer": null, "addr:full": null, "addr:city": null, "source": null, "name:vi": null, "osm_id": 10599280805, "osm_type": "nodes" }, "geometry": { "type": "Point", "coordinates": [ 108.3416259, 15.70486 ] } },
{ "type": "Feature", "properties": { "name": "Văn Xá", "name:en": null, "railway": "station", "ele": null, "operator:type": null, "layer": null, "addr:full": null, "addr:city": null, "source": null, "name:vi": null, "osm_id": 10591199075, "osm_type": "nodes" }, "geometry": { "type": "Point", "coordinates": [ 107.5039377, 16.5082239 ] } },
{ "type": "Feature", "properties": { "name": "Thừa Lưu", "name:en": "Thua Luu", "railway": "station", "ele": null, "operator:type": null, "layer": null, "addr:full": null, "addr:city": null, "source": null, "name:vi": null, "osm_id": 3080461554, "osm_type": "nodes" }, "geometry": { "type": "Point", "coordinates": [ 107.9936954, 16.271002 ] } },
{ "type": "Feature", "properties": { "name": "Nông Sơn", "name:en": null, "railway": "station", "ele": null, "operator:type": null, "layer": null, "addr:full": null, "addr:city": null, "source": null, "name:vi": null, "osm_id": 10599269287, "osm_type": "nodes" }, "geometry": { "type": "Point", "coordinates": [ 108.1867687, 15.8873487 ] } },
{ "type": "Feature", "properties": { "name": "An Mỹ", "name:en": null, "railway": "station", "ele": null, "operator:type": null, "layer": null, "addr:full": null, "addr:city": null, "source": null, "name:vi": null, "osm_id": 10599280814, "osm_type": "nodes" }, "geometry": { "type": "Point", "coordinates": [ 108.427458, 15.5965636 ] } },
{ "type": "Feature", "properties": { "name": "Ngân Sơn", "name:en": null, "railway": "station", "ele": null, "operator:type": null, "layer": null, "addr:full": null, "addr:city": null, "source": null, "name:vi": null, "osm_id": 10591198961, "osm_type": "nodes" }, "geometry": { "type": "Point", "coordinates": [ 106.3944973, 17.6698814 ] } },
{ "type": "Feature", "properties": { "name": "Quán Hành", "name:en": null, "railway": "station", "ele": null, "operator:type": null, "layer": null, "addr:full": null, "addr:city": null, "source": null, "name:vi": null, "osm_id": 1690292547, "osm_type": "nodes" }, "geometry": { "type": "Point", "coordinates": [ 105.6469129, 18.7821745 ] } },
{ "type": "Feature", "properties": { "name": "Cầu Giát", "name:en": "Cau Giat", "railway": "station", "ele": null, "operator:type": null, "layer": null, "addr:full": null, "addr:city": null, "source": null, "name:vi": null, "osm_id": 7619993037, "osm_type": "nodes" }, "geometry": { "type": "Point", "coordinates": [ 105.6270377, 19.1590584 ] } },
{ "type": "Feature", "properties": { "name": "Phú Hòa", "name:en": null, "railway": "station", "ele": null, "operator:type": null, "layer": null, "addr:full": null, "addr:city": null, "source": null, "name:vi": null, "osm_id": 10591198997, "osm_type": "nodes" }, "geometry": { "type": "Point", "coordinates": [ 106.7443253, 17.1932274 ] } },
{ "type": "Feature", "properties": { "name": "Thượng Lâm", "name:en": null, "railway": "station", "ele": null, "operator:type": null, "layer": null, "addr:full": null, "addr:city": null, "source": null, "name:vi": null, "osm_id": 10591199006, "osm_type": "nodes" }, "geometry": { "type": "Point", "coordinates": [ 106.8601029, 17.1515273 ] } },
{ "type": "Feature", "properties": { "name": "Sa Lung", "name:en": null, "railway": "station", "ele": null, "operator:type": null, "layer": null, "addr:full": null, "addr:city": null, "source": null, "name:vi": null, "osm_id": 10591199014, "osm_type": "nodes" }, "geometry": { "type": "Point", "coordinates": [ 106.9657482, 17.0590426 ] } },
{ "type": "Feature", "properties": { "name": "Mỹ Đức", "name:en": null, "railway": "station", "ele": null, "operator:type": null, "layer": null, "addr:full": null, "addr:city": null, "source": null, "name:vi": null, "osm_id": 11194046656, "osm_type": "nodes" }, "geometry": { "type": "Point", "coordinates": [ 106.6956857, 17.2388665 ] } },
{ "type": "Feature", "properties": { "name": "Hà Thanh", "name:en": null, "railway": "station", "ele": null, "operator:type": null, "layer": null, "addr:full": null, "addr:city": null, "source": null, "name:vi": null, "osm_id": 10591199028, "osm_type": "nodes" }, "geometry": { "type": "Point", "coordinates": [ 107.0774112, 16.9083329 ] } },
{ "type": "Feature", "properties": { "name": "Lệ Sơn", "name:en": null, "railway": "station", "ele": null, "operator:type": null, "layer": null, "addr:full": null, "addr:city": null, "source": null, "name:vi": null, "osm_id": 3555890811, "osm_type": "nodes" }, "geometry": { "type": "Point", "coordinates": [ 106.2576957, 17.7788632 ] } },
{ "type": "Feature", "properties": { "name": "Hương Phố", "name:en": "Huong Pho", "railway": "station", "ele": null, "operator:type": null, "layer": null, "addr:full": null, "addr:city": null, "source": null, "name:vi": null, "osm_id": 3555989422, "osm_type": "nodes" }, "geometry": { "type": "Point", "coordinates": [ 105.7075544, 18.1704409 ] } },
{ "type": "Feature", "properties": { "name": "Yên Trung", "name:en": "Yen Trung", "railway": "station", "ele": null, "operator:type": null, "layer": null, "addr:full": null, "addr:city": null, "source": null, "name:vi": null, "osm_id": 4195713289, "osm_type": "nodes" }, "geometry": { "type": "Point", "coordinates": [ 105.5876526, 18.5231585 ] } },
{ "type": "Feature", "properties": { "name": "Yên Lý", "name:en": null, "railway": "station", "ele": null, "operator:type": null, "layer": null, "addr:full": null, "addr:city": null, "source": null, "name:vi": null, "osm_id": 7791620493, "osm_type": "nodes" }, "geometry": { "type": "Point", "coordinates": [ 105.5856005, 19.0758673 ] } },
{ "type": "Feature", "properties": { "name": "Mỹ Trạch", "name:en": null, "railway": "station", "ele": null, "operator:type": null, "layer": null, "addr:full": null, "addr:city": null, "source": null, "name:vi": null, "osm_id": 7872464353, "osm_type": "nodes" }, "geometry": { "type": "Point", "coordinates": [ 106.8062527, 17.1868555 ] } },
{ "type": "Feature", "properties": { "name": "Yên Duệ", "name:en": null, "railway": "station", "ele": null, "operator:type": null, "layer": null, "addr:full": null, "addr:city": null, "source": null, "name:vi": null, "osm_id": 10559804592, "osm_type": "nodes" }, "geometry": { "type": "Point", "coordinates": [ 105.5660936, 18.4247655 ] } },
{ "type": "Feature", "properties": { "name": "Chu Lễ", "name:en": null, "railway": "station", "ele": null, "operator:type": null, "layer": null, "addr:full": null, "addr:city": null, "source": null, "name:vi": null, "osm_id": 10591128476, "osm_type": "nodes" }, "geometry": { "type": "Point", "coordinates": [ 105.6987414, 18.2237038 ] } },
{ "type": "Feature", "properties": { "name": "Phúc Trạch", "name:en": null, "railway": "station", "ele": null, "operator:type": null, "layer": null, "addr:full": null, "addr:city": null, "source": null, "name:vi": null, "osm_id": 10591128498, "osm_type": "nodes" }, "geometry": { "type": "Point", "coordinates": [ 105.7698261, 18.1112793 ] } },
{ "type": "Feature", "properties": { "name": "Tân Ấp", "name:en": null, "railway": "station", "ele": null, "operator:type": null, "layer": null, "addr:full": null, "addr:city": null, "source": null, "name:vi": null, "osm_id": 10591198912, "osm_type": "nodes" }, "geometry": { "type": "Point", "coordinates": [ 105.8542829, 18.0340301 ] } },
{ "type": "Feature", "properties": { "name": "Kim Lũ", "name:en": null, "railway": "station", "ele": null, "operator:type": null, "layer": null, "addr:full": null, "addr:city": null, "source": null, "name:vi": null, "osm_id": 10591198925, "osm_type": "nodes" }, "geometry": { "type": "Point", "coordinates": [ 105.9617855, 17.9502222 ] } },
{ "type": "Feature", "properties": { "name": "Ngọc Lâm", "name:en": null, "railway": "station", "ele": null, "operator:type": null, "layer": null, "addr:full": null, "addr:city": null, "source": null, "name:vi": null, "osm_id": 10591198942, "osm_type": "nodes" }, "geometry": { "type": "Point", "coordinates": [ 106.1217007, 17.8290137 ] } },
{ "type": "Feature", "properties": { "name": "Lạc Sơn", "name:en": null, "railway": "station", "ele": null, "operator:type": null, "layer": null, "addr:full": null, "addr:city": null, "source": null, "name:vi": null, "osm_id": 10591198949, "osm_type": "nodes" }, "geometry": { "type": "Point", "coordinates": [ 106.189402, 17.8112325 ] } },
{ "type": "Feature", "properties": { "name": "Thanh Luyện", "name:en": null, "railway": "station", "ele": null, "operator:type": null, "layer": null, "addr:full": null, "addr:city": null, "source": null, "name:vi": null, "osm_id": 9811923323, "osm_type": "nodes" }, "geometry": { "type": "Point", "coordinates": [ 105.6366283, 18.2964837 ] } },
{ "type": "Feature", "properties": { "name": "Ninh Bình", "name:en": "Ninh Binh", "railway": "station", "ele": null, "operator:type": null, "layer": null, "addr:full": null, "addr:city": null, "source": null, "name:vi": null, "osm_id": 936706346, "osm_type": "nodes" }, "geometry": { "type": "Point", "coordinates": [ 105.9746207, 20.2421142 ] } },
{ "type": "Feature", "properties": { "name": "Đồng Văn", "name:en": null, "railway": "station", "ele": null, "operator:type": null, "layer": null, "addr:full": null, "addr:city": null, "source": null, "name:vi": null, "osm_id": 1274538809, "osm_type": "nodes" }, "geometry": { "type": "Point", "coordinates": [ 105.9188669, 20.6388825 ] } },
{ "type": "Feature", "properties": { "name": "Văn Trai", "name:en": null, "railway": "station", "ele": null, "operator:type": null, "layer": null, "addr:full": null, "addr:city": null, "source": null, "name:vi": null, "osm_id": 1690292888, "osm_type": "nodes" }, "geometry": { "type": "Point", "coordinates": [ 105.763649, 19.4579895 ] } },
{ "type": "Feature", "properties": { "name": "Trình Xuyên", "name:en": null, "railway": "station", "ele": null, "operator:type": null, "layer": null, "addr:full": null, "addr:city": null, "source": null, "name:vi": null, "osm_id": 7003936112, "osm_type": "nodes" }, "geometry": { "type": "Point", "coordinates": [ 106.1330736, 20.3715557 ] } },
{ "type": "Feature", "properties": { "name": "Bình Lục", "name:en": null, "railway": "station", "ele": null, "operator:type": null, "layer": null, "addr:full": null, "addr:city": null, "source": null, "name:vi": null, "osm_id": 7790892564, "osm_type": "nodes" }, "geometry": { "type": "Point", "coordinates": [ 105.9969524, 20.4934849 ] } },
{ "type": "Feature", "properties": { "name": "Cầu Họ", "name:en": null, "railway": "station", "ele": null, "operator:type": null, "layer": null, "addr:full": null, "addr:city": null, "source": null, "name:vi": null, "osm_id": 7790892565, "osm_type": "nodes" }, "geometry": { "type": "Point", "coordinates": [ 106.0497594, 20.4662422 ] } },
{ "type": "Feature", "properties": { "name": "Núi Gôi", "name:en": null, "railway": "station", "ele": null, "operator:type": null, "layer": null, "addr:full": null, "addr:city": null, "source": null, "name:vi": null, "osm_id": 7790892567, "osm_type": "nodes" }, "geometry": { "type": "Point", "coordinates": [ 106.0769274, 20.3315896 ] } },
{ "type": "Feature", "properties": { "name": "Đồng Giao", "name:en": null, "railway": "station", "ele": null, "operator:type": null, "layer": null, "addr:full": null, "addr:city": null, "source": null, "name:vi": null, "osm_id": 7790972006, "osm_type": "nodes" }, "geometry": { "type": "Point", "coordinates": [ 105.8711123, 20.1380163 ] } },
{ "type": "Feature", "properties": { "name": "Nghĩa Trang", "name:en": null, "railway": "station", "ele": null, "operator:type": null, "layer": null, "addr:full": null, "addr:city": null, "source": null, "name:vi": null, "osm_id": 7790972007, "osm_type": "nodes" }, "geometry": { "type": "Point", "coordinates": [ 105.8135537, 19.9161761 ] } },
{ "type": "Feature", "properties": { "name": "Thị Long", "name:en": null, "railway": "station", "ele": null, "operator:type": null, "layer": null, "addr:full": null, "addr:city": null, "source": null, "name:vi": null, "osm_id": 7791464795, "osm_type": "nodes" }, "geometry": { "type": "Point", "coordinates": [ 105.709964, 19.5427315 ] } },
{ "type": "Feature", "properties": { "name": "Khoa Trường", "name:en": null, "railway": "station", "ele": null, "operator:type": null, "layer": null, "addr:full": null, "addr:city": null, "source": null, "name:vi": null, "osm_id": 7791464796, "osm_type": "nodes" }, "geometry": { "type": "Point", "coordinates": [ 105.7319504, 19.3755924 ] } },
{ "type": "Feature", "properties": { "name": "Hoàng Mai", "name:en": null, "railway": "station", "ele": null, "operator:type": null, "layer": null, "addr:full": null, "addr:city": null, "source": null, "name:vi": null, "osm_id": 7791620488, "osm_type": "nodes" }, "geometry": { "type": "Point", "coordinates": [ 105.6963957, 19.2680646 ] } },
{ "type": "Feature", "properties": { "name": "Yên Thái", "name:en": null, "railway": "station", "ele": null, "operator:type": null, "layer": null, "addr:full": null, "addr:city": null, "source": null, "name:vi": null, "osm_id": 9811923230, "osm_type": "nodes" }, "geometry": { "type": "Point", "coordinates": [ 105.7077412, 19.7185213 ] } },
{ "type": "Feature", "properties": { "name": "Cầu Yên", "name:en": null, "railway": "station", "ele": null, "operator:type": null, "layer": null, "addr:full": null, "addr:city": null, "source": null, "name:vi": null, "osm_id": 2451929745, "osm_type": "nodes" }, "geometry": { "type": "Point", "coordinates": [ 105.9657091, 20.2043058 ] } },
{ "type": "Feature", "properties": { "name": "Minh Khôi", "name:en": "Minh Khoi", "railway": "station", "ele": null, "operator:type": null, "layer": null, "addr:full": null, "addr:city": null, "source": null, "name:vi": null, "osm_id": 4195729191, "osm_type": "nodes" }, "geometry": { "type": "Point", "coordinates": [ 105.7018897, 19.6331403 ] } },
{ "type": "Feature", "properties": { "name": "Ghềnh", "name:en": null, "railway": "station", "ele": null, "operator:type": null, "layer": null, "addr:full": null, "addr:city": null, "source": null, "name:vi": null, "osm_id": 4684920699, "osm_type": "nodes" }, "geometry": { "type": "Point", "coordinates": [ 105.9413917, 20.1695042 ] } },
{ "type": "Feature", "properties": { "name": "Đò Lèn", "name:en": "Do Len", "railway": "station", "ele": null, "operator:type": null, "layer": null, "addr:full": null, "addr:city": null, "source": null, "name:vi": null, "osm_id": 6123105710, "osm_type": "nodes" }, "geometry": { "type": "Point", "coordinates": [ 105.844805, 19.987342 ] } },
{ "type": "Feature", "properties": { "name": "Thịnh Châu", "name:en": null, "railway": "station", "ele": null, "operator:type": null, "layer": null, "addr:full": null, "addr:city": null, "source": null, "name:vi": null, "osm_id": 10591128469, "osm_type": "nodes" }, "geometry": { "type": "Point", "coordinates": [ 105.8948991, 20.5097097 ] } },
{ "type": "Feature", "properties": { "name": "Pom Hán", "name:en": null, "railway": "station", "ele": null, "operator:type": null, "layer": null, "addr:full": null, "addr:city": null, "source": null, "name:vi": null, "osm_id": 5936550803, "osm_type": "nodes" }, "geometry": { "type": "Point", "coordinates": [ 104.0214383, 22.4168064 ] } },
{ "type": "Feature", "properties": { "name": "Xuân Giao A", "name:en": null, "railway": "station", "ele": null, "operator:type": null, "layer": null, "addr:full": null, "addr:city": null, "source": null, "name:vi": null, "osm_id": 5936550808, "osm_type": "nodes" }, "geometry": { "type": "Point", "coordinates": [ 104.1113619, 22.344392 ] } },
{ "type": "Feature", "properties": { "name": "Xuân Giao B", "name:en": null, "railway": "station", "ele": null, "operator:type": null, "layer": null, "addr:full": null, "addr:city": null, "source": null, "name:vi": null, "osm_id": 11192584015, "osm_type": "nodes" }, "geometry": { "type": "Point", "coordinates": [ 104.1148422, 22.3429613 ] } },
{ "type": "Feature", "properties": { "name": "Thái Văn", "name:en": null, "railway": "station", "ele": null, "operator:type": null, "layer": null, "addr:full": null, "addr:city": null, "source": null, "name:vi": null, "osm_id": 11192382466, "osm_type": "nodes" }, "geometry": { "type": "Point", "coordinates": [ 104.2842246, 22.2350221 ] } },
{ "type": "Feature", "properties": { "name": "Cầu Nhò", "name:en": null, "railway": "station", "ele": null, "operator:type": null, "layer": null, "addr:full": null, "addr:city": null, "source": null, "name:vi": null, "osm_id": 11192382550, "osm_type": "nodes" }, "geometry": { "type": "Point", "coordinates": [ 104.2468914, 22.2797659 ] } },
{ "type": "Feature", "properties": { "name": "Phố Lu", "name:en": null, "railway": "station", "ele": null, "operator:type": null, "layer": null, "addr:full": null, "addr:city": null, "source": null, "name:vi": null, "osm_id": 5936550883, "osm_type": "nodes" }, "geometry": { "type": "Point", "coordinates": [ 104.1868201, 22.3146695 ] } },
{ "type": "Feature", "properties": { "name": "Thái Niên", "name:en": null, "railway": "station", "ele": null, "operator:type": null, "layer": null, "addr:full": null, "addr:city": null, "source": null, "name:vi": null, "osm_id": 11192342729, "osm_type": "nodes" }, "geometry": { "type": "Point", "coordinates": [ 104.0862102, 22.3994481 ] } },
{ "type": "Feature", "properties": { "name": "Mậu Đông", "name:en": null, "railway": "station", "ele": null, "operator:type": null, "layer": null, "addr:full": null, "addr:city": null, "source": null, "name:vi": null, "osm_id": 11192222602, "osm_type": "nodes" }, "geometry": { "type": "Point", "coordinates": [ 104.6381148, 21.9302254 ] } },
{ "type": "Feature", "properties": { "name": "Lâm Giang", "name:en": null, "railway": "station", "ele": null, "operator:type": null, "layer": null, "addr:full": null, "addr:city": null, "source": null, "name:vi": null, "osm_id": 11192222723, "osm_type": "nodes" }, "geometry": { "type": "Point", "coordinates": [ 104.5343132, 22.0186183 ] } },
{ "type": "Feature", "properties": { "name": "Lang Thíp", "name:en": null, "railway": "station", "ele": null, "operator:type": null, "layer": null, "addr:full": null, "addr:city": null, "source": null, "name:vi": null, "osm_id": 11192222765, "osm_type": "nodes" }, "geometry": { "type": "Point", "coordinates": [ 104.4157038, 22.1196617 ] } },
{ "type": "Feature", "properties": { "name": "Lạng", "name:en": null, "railway": "station", "ele": null, "operator:type": null, "layer": null, "addr:full": null, "addr:city": null, "source": null, "name:vi": null, "osm_id": 11192342728, "osm_type": "nodes" }, "geometry": { "type": "Point", "coordinates": [ 104.1362875, 22.3675151 ] } },
{ "type": "Feature", "properties": { "name": "Làng Giàng", "name:en": null, "railway": "station", "ele": null, "operator:type": null, "layer": null, "addr:full": null, "addr:city": null, "source": null, "name:vi": null, "osm_id": 11192469987, "osm_type": "nodes" }, "geometry": { "type": "Point", "coordinates": [ 104.0462178, 22.428841 ] } },
{ "type": "Feature", "properties": { "name": "Cổ Phúc", "name:en": null, "railway": "station", "ele": null, "operator:type": null, "layer": null, "addr:full": null, "addr:city": null, "source": null, "name:vi": null, "osm_id": 7822997441, "osm_type": "nodes" }, "geometry": { "type": "Point", "coordinates": [ 104.830703, 21.7611902 ] } },
{ "type": "Feature", "properties": { "name": "Mậu A", "name:en": null, "railway": "station", "ele": null, "operator:type": null, "layer": null, "addr:full": null, "addr:city": null, "source": null, "name:vi": null, "osm_id": 8847133089, "osm_type": "nodes" }, "geometry": { "type": "Point", "coordinates": [ 104.6946264, 21.8776089 ] } },
{ "type": "Feature", "properties": { "name": "Phúc Yên", "name:en": null, "railway": "station", "ele": null, "operator:type": null, "layer": null, "addr:full": null, "addr:city": null, "source": null, "name:vi": null, "osm_id": 1858361494, "osm_type": "nodes" }, "geometry": { "type": "Point", "coordinates": [ 105.7122557, 21.2400659 ] } },
{ "type": "Feature", "properties": { "name": "Thạch Lỗi", "name:en": null, "railway": "station", "ele": null, "operator:type": null, "layer": null, "addr:full": null, "addr:city": null, "source": null, "name:vi": null, "osm_id": 7822861836, "osm_type": "nodes" }, "geometry": { "type": "Point", "coordinates": [ 105.749681, 21.2010286 ] } },
{ "type": "Feature", "properties": { "name": "Hướng Lại", "name:en": null, "railway": "station", "ele": null, "operator:type": null, "layer": null, "addr:full": null, "addr:city": null, "source": null, "name:vi": null, "osm_id": 7822983842, "osm_type": "nodes" }, "geometry": { "type": "Point", "coordinates": [ 105.5192944, 21.2916801 ] } },
{ "type": "Feature", "properties": { "name": "Văn Phú", "name:en": null, "railway": "station", "ele": null, "operator:type": null, "layer": null, "addr:full": null, "addr:city": null, "source": null, "name:vi": null, "osm_id": 7822997440, "osm_type": "nodes" }, "geometry": { "type": "Point", "coordinates": [ 104.9278403, 21.6785851 ] } },
{ "type": "Feature", "properties": { "name": "Tiên Kiên", "name:en": null, "railway": "station", "ele": null, "operator:type": null, "layer": null, "addr:full": null, "addr:city": null, "source": null, "name:vi": null, "osm_id": 4911856102, "osm_type": "nodes" }, "geometry": { "type": "Point", "coordinates": [ 105.2935033, 21.3662579 ] } },
{ "type": "Feature", "properties": { "name": "Việt Trì", "name:en": null, "railway": "station", "ele": null, "operator:type": null, "layer": null, "addr:full": null, "addr:city": null, "source": null, "name:vi": null, "osm_id": 5965084639, "osm_type": "nodes" }, "geometry": { "type": "Point", "coordinates": [ 105.4321691, 21.3004521 ] } },
{ "type": "Feature", "properties": { "name": "Vĩnh Yên", "name:en": null, "railway": "station", "ele": null, "operator:type": null, "layer": null, "addr:full": null, "addr:city": null, "source": null, "name:vi": null, "osm_id": 7153164746, "osm_type": "nodes" }, "geometry": { "type": "Point", "coordinates": [ 105.6013032, 21.3093761 ] } },
{ "type": "Feature", "properties": { "name": "Phủ Đức", "name:en": null, "railway": "station", "ele": null, "operator:type": null, "layer": null, "addr:full": null, "addr:city": null, "source": null, "name:vi": null, "osm_id": 7153167519, "osm_type": "nodes" }, "geometry": { "type": "Point", "coordinates": [ 105.3657286, 21.3394793 ] } },
{ "type": "Feature", "properties": { "name": "Chí Chủ", "name:en": null, "railway": "station", "ele": null, "operator:type": null, "layer": null, "addr:full": null, "addr:city": null, "source": null, "name:vi": null, "osm_id": 7153176034, "osm_type": "nodes" }, "geometry": { "type": "Point", "coordinates": [ 105.153, 21.4297932 ] } },
{ "type": "Feature", "properties": { "name": "Phú Thọ", "name:en": null, "railway": "station", "ele": null, "operator:type": null, "layer": null, "addr:full": null, "addr:city": null, "source": null, "name:vi": null, "osm_id": 7153181570, "osm_type": "nodes" }, "geometry": { "type": "Point", "coordinates": [ 105.2239783, 21.4023601 ] } },
{ "type": "Feature", "properties": { "name": "Vũ Ẻn", "name:en": null, "railway": "station", "ele": null, "operator:type": null, "layer": null, "addr:full": null, "addr:city": null, "source": null, "name:vi": null, "osm_id": 7153182342, "osm_type": "nodes" }, "geometry": { "type": "Point", "coordinates": [ 105.0859213, 21.4873483 ] } },
{ "type": "Feature", "properties": { "name": "Hương Canh", "name:en": null, "railway": "station", "ele": null, "operator:type": null, "layer": null, "addr:full": null, "addr:city": null, "source": null, "name:vi": null, "osm_id": 7822983841, "osm_type": "nodes" }, "geometry": { "type": "Point", "coordinates": [ 105.646867, 21.2813187 ] } },
{ "type": "Feature", "properties": { "name": "Bạch Hạc", "name:en": null, "railway": "station", "ele": null, "operator:type": null, "layer": null, "addr:full": null, "addr:city": null, "source": null, "name:vi": null, "osm_id": 7822983843, "osm_type": "nodes" }, "geometry": { "type": "Point", "coordinates": [ 105.463572, 21.290603 ] } },
{ "type": "Feature", "properties": { "name": "Cái Lân", "name:en": null, "railway": "station", "ele": null, "operator:type": null, "layer": null, "addr:full": null, "addr:city": null, "source": null, "name:vi": null, "osm_id": 6315983756, "osm_type": "nodes" }, "geometry": { "type": "Point", "coordinates": [ 107.04058, 20.971902 ] } },
{ "type": "Feature", "properties": { "name": "Lan Mẫu", "name:en": null, "railway": "station", "ele": null, "operator:type": null, "layer": null, "addr:full": null, "addr:city": null, "source": null, "name:vi": null, "osm_id": 7150182209, "osm_type": "nodes" }, "geometry": { "type": "Point", "coordinates": [ 106.3377507, 21.2906629 ] } },
{ "type": "Feature", "properties": { "name": "Đông Triều", "name:en": null, "railway": "station", "ele": null, "operator:type": null, "layer": null, "addr:full": null, "addr:city": null, "source": null, "name:vi": null, "osm_id": 7150191832, "osm_type": "nodes" }, "geometry": { "type": "Point", "coordinates": [ 106.5331361, 21.0952648 ] } },
{ "type": "Feature", "properties": { "name": "Cẩm Lý", "name:en": null, "railway": "station", "ele": null, "operator:type": null, "layer": null, "addr:full": null, "addr:city": null, "source": null, "name:vi": null, "osm_id": 7150201926, "osm_type": "nodes" }, "geometry": { "type": "Point", "coordinates": [ 106.3800839, 21.216864 ] } },
{ "type": "Feature", "properties": { "name": "Uông Bí", "name:en": null, "railway": "station", "ele": null, "operator:type": null, "layer": null, "addr:full": null, "addr:city": null, "source": null, "name:vi": null, "osm_id": 7150206397, "osm_type": "nodes" }, "geometry": { "type": "Point", "coordinates": [ 106.7563458, 21.0349918 ] } },
{ "type": "Feature", "properties": { "name": "Hạ Long", "name:en": null, "railway": "station", "ele": null, "operator:type": null, "layer": null, "addr:full": null, "addr:city": null, "source": null, "name:vi": null, "osm_id": 4195718092, "osm_type": "nodes" }, "geometry": { "type": "Point", "coordinates": [ 107.0104198, 20.9748254 ] } },
{ "type": "Feature", "properties": { "name": "Chí Linh", "name:en": null, "railway": "station", "ele": null, "operator:type": null, "layer": null, "addr:full": null, "addr:city": null, "source": null, "name:vi": null, "osm_id": 6009922083, "osm_type": "nodes" }, "geometry": { "type": "Point", "coordinates": [ 106.4459176, 21.1544436 ] } },
{ "type": "Feature", "properties": { "name": "Yên Dưỡng", "name:en": null, "railway": "station", "ele": null, "operator:type": null, "layer": null, "addr:full": null, "addr:city": null, "source": null, "name:vi": null, "osm_id": 11190701881, "osm_type": "nodes" }, "geometry": { "type": "Point", "coordinates": [ 106.7012171, 21.0454902 ] } },
{ "type": "Feature", "properties": { "name": "Trà Kiệu", "name:en": null, "railway": "station", "ele": null, "operator:type": null, "layer": null, "addr:full": null, "addr:city": null, "source": null, "name:vi": null, "osm_id": 9837363539, "osm_type": "nodes" }, "geometry": { "type": "Point", "coordinates": [ 108.2312632, 15.8101527 ] } },
{ "type": "Feature", "properties": { "name": "Phổ Yên", "name:en": "Pho Yen", "railway": "station", "ele": null, "operator:type": null, "layer": null, "addr:full": null, "addr:city": null, "source": null, "name:vi": "Phổ Yên", "osm_id": 7146444577, "osm_type": "nodes" }, "geometry": { "type": "Point", "coordinates": [ 105.8767939, 21.4112833 ] } },
{ "type": "Feature", "properties": { "name": "Thái Nguyên", "name:en": null, "railway": "station", "ele": null, "operator:type": null, "layer": null, "addr:full": null, "addr:city": null, "source": null, "name:vi": null, "osm_id": 4195730294, "osm_type": "nodes" }, "geometry": { "type": "Point", "coordinates": [ 105.8238293, 21.5867762 ] } },
{ "type": "Feature", "properties": { "name": "Lưu Xá", "name:en": null, "railway": "station", "ele": null, "operator:type": null, "layer": null, "addr:full": null, "addr:city": null, "source": null, "name:vi": null, "osm_id": 7153073869, "osm_type": "nodes" }, "geometry": { "type": "Point", "coordinates": [ 105.8466944, 21.5622343 ] } },
{ "type": "Feature", "properties": { "name": "Quán Triều", "name:en": null, "railway": "station", "ele": null, "operator:type": null, "layer": null, "addr:full": null, "addr:city": null, "source": null, "name:vi": null, "osm_id": 7153114395, "osm_type": "nodes" }, "geometry": { "type": "Point", "coordinates": [ 105.8034572, 21.6036772 ] } },
{ "type": "Feature", "properties": { "name": "Đa Phúc", "name:en": "Da Phuc", "railway": "station", "ele": null, "operator:type": null, "layer": null, "addr:full": null, "addr:city": null, "source": null, "name:vi": "Đa Phúc", "osm_id": 11034360991, "osm_type": "nodes" }, "geometry": { "type": "Point", "coordinates": [ 105.860948, 21.2331124 ] } },
{ "type": "Feature", "properties": { "name": "Trung Giã", "name:en": "Trung Gia", "railway": "station", "ele": null, "operator:type": null, "layer": null, "addr:full": null, "addr:city": null, "source": null, "name:vi": null, "osm_id": 11034360998, "osm_type": "nodes" }, "geometry": { "type": "Point", "coordinates": [ 105.8712168, 21.3147343 ] } },
{ "type": "Feature", "properties": { "name": "Lương Sơn", "name:en": "Luong Son", "railway": "station", "ele": null, "operator:type": null, "layer": null, "addr:full": null, "addr:city": null, "source": null, "name:vi": "Lương Sơn", "osm_id": 11034383627, "osm_type": "nodes" }, "geometry": { "type": "Point", "coordinates": [ 105.8775668, 21.4908473 ] } },
{ "type": "Feature", "properties": { "name": "Gốc Xộp", "name:en": null, "railway": "station", "ele": null, "operator:type": null, "layer": null, "addr:full": null, "addr:city": null, "source": null, "name:vi": null, "osm_id": 11190320962, "osm_type": "nodes" }, "geometry": { "type": "Point", "coordinates": [ 105.7088323, 21.6387364 ] } },
{ "type": "Feature", "properties": { "name": "Yên Trạch", "name:en": null, "railway": "station", "ele": null, "operator:type": null, "layer": null, "addr:full": null, "addr:city": null, "source": null, "name:vi": null, "osm_id": 6796320356, "osm_type": "nodes" }, "geometry": { "type": "Point", "coordinates": [ 106.7620624, 21.8103324 ] } },
{ "type": "Feature", "properties": { "name": "Voi Xô", "name:en": "Voi Xo", "railway": "station", "ele": null, "operator:type": null, "layer": null, "addr:full": null, "addr:city": null, "source": null, "name:vi": null, "osm_id": 7150227049, "osm_type": "nodes" }, "geometry": { "type": "Point", "coordinates": [ 106.3381796, 21.439308 ] } },
{ "type": "Feature", "properties": { "name": "Chi Lăng", "name:en": "Chi Lang", "railway": "station", "ele": null, "operator:type": null, "layer": null, "addr:full": null, "addr:city": null, "source": null, "name:vi": null, "osm_id": 7150247209, "osm_type": "nodes" }, "geometry": { "type": "Point", "coordinates": [ 106.5351747, 21.6021084 ] } },
{ "type": "Feature", "properties": { "name": "Bản Thí", "name:en": null, "railway": "station", "ele": null, "operator:type": null, "layer": null, "addr:full": null, "addr:city": null, "source": null, "name:vi": null, "osm_id": 7152691339, "osm_type": "nodes" }, "geometry": { "type": "Point", "coordinates": [ 106.7320823, 21.7661485 ] } },
{ "type": "Feature", "properties": { "name": "Tân Liên", "name:en": null, "railway": "station", "ele": null, "operator:type": null, "layer": null, "addr:full": null, "addr:city": null, "source": null, "name:vi": null, "osm_id": 10857492471, "osm_type": "nodes" }, "geometry": { "type": "Point", "coordinates": [ 106.8255609, 21.8128689 ] } },
{ "type": "Feature", "properties": { "name": "Kép", "name:en": "Kep", "railway": "station", "ele": null, "operator:type": null, "layer": null, "addr:full": null, "addr:city": null, "source": null, "name:vi": null, "osm_id": 4639698212, "osm_type": "nodes" }, "geometry": { "type": "Point", "coordinates": [ 106.2903871, 21.4167257 ] } },
{ "type": "Feature", "properties": { "name": "Na Dương", "name:en": null, "railway": "station", "ele": null, "operator:type": null, "layer": null, "addr:full": null, "addr:city": null, "source": null, "name:vi": null, "osm_id": 10857492042, "osm_type": "nodes" }, "geometry": { "type": "Point", "coordinates": [ 106.9587359, 21.7010592 ] } },
{ "type": "Feature", "properties": { "name": "Yên Viên", "name:en": "Yen Vien", "railway": "station", "ele": null, "operator:type": null, "layer": null, "addr:full": null, "addr:city": "Hà Nội", "source": null, "name:vi": null, "osm_id": 311714761, "osm_type": "nodes" }, "geometry": { "type": "Point", "coordinates": [ 105.9159171, 21.0849376 ] } },
{ "type": "Feature", "properties": { "name": "Sen Hồ", "name:en": null, "railway": "station", "ele": null, "operator:type": null, "layer": null, "addr:full": null, "addr:city": null, "source": null, "name:vi": null, "osm_id": 7150197662, "osm_type": "nodes" }, "geometry": { "type": "Point", "coordinates": [ 106.1046003, 21.252496 ] } },
{ "type": "Feature", "properties": { "name": "Thượng Lý", "name:en": null, "railway": "station", "ele": null, "operator:type": null, "layer": null, "addr:full": null, "addr:city": null, "source": null, "name:vi": null, "osm_id": 2495831892, "osm_type": "nodes" }, "geometry": { "type": "Point", "coordinates": [ 106.6581991, 20.8658492 ] } },
{ "type": "Feature", "properties": { "name": "Cẩm Giàng", "name:en": null, "railway": "station", "ele": null, "operator:type": null, "layer": null, "addr:full": null, "addr:city": null, "source": null, "name:vi": null, "osm_id": 2189495967, "osm_type": "nodes" }, "geometry": { "type": "Point", "coordinates": [ 106.1720565, 20.9667289 ] } },
{ "type": "Feature", "properties": { "name": "Bỉm Sơn", "name:en": "Bim Son", "railway": "station", "ele": null, "operator:type": null, "layer": null, "addr:full": null, "addr:city": null, "source": "Visit, with GPS in Vespucci", "name:vi": null, "osm_id": 2749441688, "osm_type": "nodes" }, "geometry": { "type": "Point", "coordinates": [ 105.8550954, 20.0811875 ] } },
{ "type": "Feature", "properties": { "name": "Trúc Mây", "name:en": "Truc May", "railway": "station", "ele": "3130", "operator:type": null, "layer": null, "addr:full": null, "addr:city": null, "source": null, "name:vi": null, "osm_id": 5592212557, "osm_type": "nodes" }, "geometry": { "type": "Point", "coordinates": [ 103.7754471, 22.303473 ] } },
{ "type": "Feature", "properties": { "name": "Đại học Quốc gia", "name:en": "National University", "railway": "station", "ele": null, "operator:type": null, "layer": null, "addr:full": null, "addr:city": null, "source": null, "name:vi": null, "osm_id": 11079400280, "osm_type": "nodes" }, "geometry": { "type": "Point", "coordinates": [ 105.782693, 21.0366627 ] } }
]
}
